"NAME","ADDR 1","City","State","Zip","Phone#"
"1 DANCIN' STOP, LLC","250 EAST MAIN STREET","PULLMAN","WA",99163,(509) 334-3124
"10TH STREET DANCEWEAR","5240 N. 10TH STREET #7","McALLEN","TX",78504,(956) 618-0789
"14TH STREET SHOES CENTER","4311 14TH AVE","BROOKLYN","NY",11219,(718) 436-6910
"1887 DANCE SHOP","2206 UNION ST.","SAN FRANCISCO","CA",94123,(415) 441-1887
"220 DANCE CENTRAL","220 S.E. DOUGLAS","LEES SUMMIT","MO",64063,(816) 554-6033
"3 MONKEYS CHILDRENS BOUTIQUE","3301 MARKET STREET,  SUITE 102","ROGERS","AR",72758,(479) 271-0701
"360 DANCE FITTERS","29 WEST HIGH STREET","CARLISLE","PA",17013,(717) 249-7313
"5678 DANCEWEAR  DEFINED","475 W. SOUTHLAKE BLVD","SOUTHLAKE","TX","76092",(817) 416-5678
"98% ANGEL","3835 CROSS CREEK ROAD #1B","MALIBU","CA",90265,(310) 456-0069
"A SHOE GROWS IN BROOKLYN","450 7th AVENUE","BROOKLYN","NY",11215,(347) 907-3873
"A SHOE INN","558 CENTRAL AVENUE","CEDARHURST","NY",11516,(516) 295-0026
"A.K.A DANCE","326 MARKET STREET","LEMOYNE","PA",17043,(717) 737-6273
"A-1 DANCE & THEATRICAL","22120 REDWOOD RD","CASTRO VALLEY","CA",94546,(510) 537-8288
"ABC DANCE SUPPLIES","1915 KUTZTOWN RD","READING","PA","19604",(610) 921-2518
"ABC DANCE SUPPLIES","179 WANNER ROAD","READING","PA",19606,(610) 929-5374
"ABIGAIL'S CHILDREN'S BOUTIQUE","93 CENTRAL ATREET","WELLESLEY","MA",02482,(781) 235-3333
"ACADEMY  OF DANCE ARTS","2224 E.MICHIGAN","LANSING","MI",48912,(517) 372-9887
"ACADIA DANCEWEAR","311 CHILLICOTHE STREET","PORTSMOUTH","OH",45662,(740) 353-5211
"ACTION ON STAGE","5610 MCARDLE RD","CORPUS CHRISTI","TX",78412,(361) 992-5444
"ACTION WEAR","333 BROAD ST","ELYRIA","OH",44035,(440) 323-4389
"ADDISON CRAIG","1155 SASSCO HILL ROAD","FAIRFIELD","CT",06824,(941) 388-3400
"ADORALE","CARR #2 KM 82.3","HATILLO","PR","00659",(787) 881-9393
"AEROBIC & DANCEWEAR SHOPPE","16250 SW BRYANT ROAD","LAKE OSWEGO","OR",97035,(503) 699-0544
"ALIXANDRA COLLECTIONS","40 SOUTH WASHINGTON STREET","HINSDALE","IL",600521,(630) 789-0022
"ALL ABOUT DANCEWEAR","1617 WATER STREET SUITE A","MINDEN","NV",89423,(775) 782-3425
"ALL ABOUT YOU","801 S. LEWIS ST. #1","NEW IBERIA","LA",70560,(337) 560-8355
"ALL AMERICAN SPIRIT FASHIONS","170 PARK AVE.","IDAHO FALLS","ID",83402,(208) 529-0604
"ALL AROUND DANCE","2429 NORTH GREGG AVE","FAYETTEVILLE","AR",72703,(479) 245-4110
"ALL THAT & JAZZ","442 WEST SOLOMON STREET","GRIFFIN","GA","30223",(770) 882-6513
"ALL THAT JAZZ","2430 WEST COMMERCE","OCEAN SPRINGS","MS",39564,(228) 875-5069
"ALL THAT JAZZ","1308 SOUTH TWIN CITY HWY","NEDERLAND","TX",77627,(409) 721-5700
"ALL THAT JAZZ","105 CHARLES ELDRIDGE DR.","LAKEVILLE","MA",02347,(508) 946-5333
"ALL THAT JAZZ","130 WEST MAIN ST. SUITE 114","COLLEGEVILLE","PA",19426,(610) 831-0800
"ALL THAT JAZZ","218 H STREET","BAKERSFIELD","CA",93304,(661) 324-5844
"ALL THAT JAZZ","2000 VILLAGE RUN ROAD SUITE 208","WEXFORD","PA",15090,(724) 933-0555
"ALL THAT JAZZ","136 SIMSBURY ROAD","AVON","CT",06001,(860) 674-9987
"ALL THAT JAZZ DANCE APPAREL","9840-B RAVENNA ROAD","TWINSBURG","OH",44087,(330) 405-6188
"ALL THAT SHIMMERS DANCE &     ACTIVE WEAR","50 SW 15TH STREET","POMPANO BEACH","FL",33060,(954) 782-2355
"ALLEGRO DANCE APPAREL","502 OLD STATE ROUTE 74","CINCINNATI","OH",45244,(513) 528-5578
"ALLEGRO DANCE BOUTIQUE","724 S. NORTHWEST HWY","BARRINGTON","IL","60010",(847) 277-1009
"ALLEGRO DANCE BOUTIQUE","2114  CENTRAL STREET","EVANSTON","IL",60201,(847) 733-8460
"ALLIGATOR ALLEY","3466 DOUGLAS RD.","SOUTH BEND ","IN",46635,(574) 247-1590
"ALONG CAME A SPIDER","938 AVOCADO AVE","NEW PORT BEACH","CA",92660,(702) 429-7476
"ALTITUDE","48 E. BROADWAY","JACKSON","WY",83001,(307) 733-4719
"ALVAS","1417 W. 8TH ST.","SAN PEDRO","CA",90732,(310) 519-1314
"ALWAYS THE CHILDREN","39 SOUTH GREENLEY AVENUE","CHAPPAQUA","NY",10514,(914) 238-7500
"AME MI","4714 ADMIRALTY WAY","MARINA DEL REY","CA",90292,(310) 733-6510
"AMORE DANCEWEAR","2128 BAY STREET","SAGINAW","MI",48602,(989) 792-6673
"ANDI'S BAY HEAD","68 BRIDGE AVE","BAY HEAD","NJ",08742,(732) 892-5564
"ANGEL DANCE SHOP","1465 SOUTH DANVILLE","ABILENE","TX","79605",(325) 232-7536
"ANGELIQUE BABY","5519 MAGAZINE STREET","NEW ORLEANS","LA",70115,(504) 899-8992
"ANGELIQUE BATON ROUGE","17455 PERKINS ROAD, STE B","BATON ROUGE","LA",70810,(225) 757-5905
"ANGELIQUE SHOES","5421 MAGAZINE STREET","NEW ORLEANS","LA",70115,(504) 891-8992
"ANNIE JEWEL & CHARLIES KIDS","2915 BOB AVE","WITCHITA FALLS","TX",76308,(940) 763-2525
"APPLAUSE","1506 VERNON RD.","ARDMORE","OK",73401,(580) 226-8277
"APPLAUSE #2","1230 'F' WEST IMPERIAL","LA HABRA","CA",90631,(562) 694-1314
"APPLAUSE COSTUMES & DANCEWEAR","788 SECOND AVENUE SOUTH","MOORHEAD","MN",56560,(218) 287-3421
"APPLAUSE DANCE BOUTIQUE","6715 MARTIN WAY EAST","OLYMPIA","WA",98516,(360) 456-6111
"APPLAUSE DANCEWEAR","123 N EL CAMINO REAL SUITE F","ENCINITAS","CA",92024,(760) 942-2297
"APPLAUSE DANCEWEAR INC.","1629 OXMOOR ROAD","BIRMINGHAM","AL",35209,(205) 871-7837
"APPLAUSE DANCEWEAR INC.","1602 HILLSIDE AVE","NEW HYDE PARK","NY",11040,(516) 488-7404
"APTOS SHOES & APPAREL","20 RANCHO DEL MAR","APTOS","CA",95003,(831) 688-8007
"ARABESQUE"," 2441 NW 43RD STREET, STE 3C","GAINESVILLE","FL",32606,(352) 372-2003
"ARABESQUE DANCE & FITNESS","25 W. KING STREET","LANCASTER","PA",17603,(717) 291-1266
"ARABESQUE II","22811 100TH AVE. WEST","EDMONDS","WA",98020,(425) 771-4525
"ARABESQUE INC","644 BANK LANE","LAKE FOREST","IL",60045,(847) 482-0997
"ARABESQUE-DANCE-STYLE-FITNESS","1877 EAST DAILY DRIVE #E","CAMARILLO","CA",93010,(805) 484-7706
"ARCADE","8473 MELROSE AVENUE","WEST HOLLYWOOD","CA",90096,(323) 344-0068
"ARENA DANCE & BODYWEAR","1971 RT. 33","HAMILTON SQUARE","NJ",08690,(609) 584-1515
"ARRAY DANCEWEAR & IMPORTS","8606 FM 1960 WEST BYPASS","HUMBLE","TX",77338,(281) 358-0800
"ART OF DANCE","15 SEMINARY AVENUE","CHESTER","NJ",07930,(908) 879-4919
"ART STONE","1795 EXPRESS DRIVE NORTH","HAUPPAUGE","NY","11788",(631) 582-9500
"ART STONE DANCEWEAR","3083 NUTLEY STREET","FAIRFAX","VA","22031     ",(703) 560-7047
"ART WORKS DANCEWEAR","129 SOUTH WASHINGTON","GREEN BAY","WI",54301,(920) 433-9510
"ARTFUL DANCEWEAR LLC","9665 N CENTRAL EXPRESSWAY SUITE 140A","DALLAS","TX",75231,(214) 739-9999
"ARTISTIC COSTUME & DANCE","1304 GOUCHER BLVD.","TOWSON","MD",21286,(410) 321-1121
"ART'S THEATRICAL SUPPLY","13209 CR 1800 #57","LUBBOCK","TX","79424",(806) 777-7792
"ASK SEEK KNOCK","707 LA HWY 139","MONROE","LA",71203,(318) 345-0011
"ASSEMBLE' DANCEWEAR LLC","4425 DATE STREET","COLORADO SPRINGS","CO",80917,(719) 596-8443
"ASSEMBLE' DANCEWEAR, LLC","931 N. PARK ST.","CASTLE ROCK","CO","80109",(303) 663-2066
"AT BARRE LTD","644 E. ARLINGTON BLVD","GREENVILLE","NC",27858,(252) 756-6670
"ATHENA'S","3757 MAIN STREET","WEIRTON","WV",26062,(304) 748-8040
"ATLANTA DANCE BOUTIQUE","1675 CUMBERLAND PARKWAY SUITE 202","SMYRNA","GA","30080",(678) 556-0444
"ATLANTA DANCE BOUTIQUE, THE","3229 B CAINS HILL PLACE","ATLANTA","GA",30305,(404) 233-8686
"ATLANTIC DANCE","1106 CHARLOTTE LANE","KILL DEVIL HILLS","NC",27948,(252) 441-9009
"ATRIUM DANCEWEAR","51 JOHNNY MERCER BLVD","SAVANNAH","GA",31410,(912) 897-4010
"ATTITUDE DANCE & ACTIVE WEAR","330 WESTPORT AVE","NORWALK","CT",06850,(203) 838-4002
"ATTITUDE DANCEWEAR & ART INC.","9621 WESTVIEW DRIVE","CORAL SPRINGS","FL",33076,(954) 755-5722
"ATTITUDES","444B WEST ROUTE 70","MARLTON","NJ",08053,(856) 985-7270
"ATTITUDES  DANCEWEAR ETC","650 N. CARRIAGE PARKWAY, ST105","WICHITA","KS",67208,(316) 688-5600
"ATTITUDES DANCE & ACTIVEWEAR","12330 JAMES STREET SUITE B-50","HOLLAND","MI",49424,(616) 738-6495
"ATTITUDES DANCEWEAR, ETC","13002 SEMINOLE BLVD. SUITE #7","LARGO","FL",33778,(727) 586-0447
"AUNTIE BARBARA'S KIDS","179  SOUTH BEVERLY DRIVE","BEVERLY HILLS","CA",90212,(310) 285-0873
"AVAMARIA","600 WASHINGTON STREET, APT 216","NEW YORK","NY",10014,(212) 966-0909
"AVANT DANCE,LLC","6500 SPID, SUITE 21","CORPUS CHRISTI","TX",78412,(361) 653-3270
"AVENUE OF THE ARTS DANCEWEAR","1129 SOUTH BROAD STREET","PHILADELPHIA","PA",19147,(215) 467-1677
"AYLA & CO","323 S. MAIN STREET","ANN ARBOR","MI",48104,(734) 665-7788
"B. BRAITHWAITE","102 WEST PACES FERRY ROAD","ATLANTA","GA",30318,(404) 605-0963
"BABINSKIS","1324 FOOTHILL BLVD","SALT LAKE CITY","UT",84108,(801) 583-2229
"BABY & KIDS COMPANY","12 MILLER AVE","MILL VALLEY","CA",94941,(415) 389-1312
"BABY AND ME","6718 ""A""  ORCHARD LAKE ROAD","WEST BLOOMFIELD","MI",48322,(248) 855-3214
"BABY BANOU","792 GRAND AVENUE","ST. PAUL","MN",55105,(651) 340-0062
"BABY BLISS","6719 SNIDER PLAZA","DALLAS","TX",75202,(469) 232-9420
"BABY BUBBLE","6105 CITY PLACE","EDGEWATER","NJ",07020,(609) 902-3214
"BABY CROSSING","980 MOUNT KEMBLE AVE","MORRISTOWN","NJ",07960,(973) 425-4080
"BABY SALON","5 SKYLINE DRIVE","ENGLEWOOD CLIFFS","NJ",07632,(917) 699-4882
"BABY STREET","5409 18TH AVENUE","BROOKLYN","NY",11204,(718) 395-3919
"BABY VIE","14404 ELK GROVE LANE","SAN DIEGO","CA",92131,
"BABY WORLD OF FALL RIVER","428 SOUTH MAIN STREET","FALL RIVER","MA",02721,(508) 672-7491
"BABY WRIGHTS","1146 HIGHLAN AVENUE","MANHATTEN BEACH","CA",90266,(310) 546-3122
"BABY'S DREAM","2027 EMMONS AVENUE","BROOKLYN","NY",11235,(718) 646-7992
"BACARA RESORT & SPA","8301 HOLLISTER AVE","GOLETA","CA",93117,(805) 571-3318
"BACK BAY DANCEWEAR, INC","185 CAMBRIDGE STREET","BURLINGTON","MA",01803,(781) 273-0345
"BACK STAGE DANCEWEAR & GIFTS","17302 ""A"" HIGHWAY 3","WEBSTER","TX",77598,(281) 316-6672
"BACKSTAGE","1047 EATON AVE","HAMILTON","OH",45013,(513) 868-7800
"BACKSTAGE BODYWEAR","205 WASHINGTON ST.WEST","CHARLESTON","WV",25302,(304) 343-2100
"BACKSTAGE BOUTIQUE","279 LIVINGSTON ST.","NORTHVALE","NJ","07647",(845) 359-0106
"BACKSTAGE, INC.","12351 S. GATEWAY PARK PLACE SUITE D-600","DRAPER","UT","84020",(801) 446-0192
"BAGLADY BOUTIQUE","1111 E. REPUBLIC ROAD","SPRINGFIELD","MO",65807,(417) 882-4438
"BAILEY SLIPPER SHOP","52 MAIN STREET","BROCKPORT","NY","14420",(585) 637-6690
"BAILEY'S","3300 MONROE AVE","ROCHESTER","NY","14618",(585) 381-2520
"BAILEY'S","8210 MAIN STREET","WILLIAMSVILLE","NY","14221",(716) 634-0314
"BALLARE, INC","3421 RIDGE ROAD SUITE 103","BUFORD","GA",30519,(770) 831-3997
"BALLERINA'S -N- THINGS","3215 WISCONSIN AVE","VICKSBURG","MS",39180,(601) 636-6885
"BALLET BOUTIQUE","1851 SW 141 AVE","MIAMI","FL","33175",(305) 863-6311
"BALLET SHOP","1709 STEWART ST.","SANTA MONICA","CA",90404,(310) 315-0486
"BALLET SHOP","799 BLANDING BLVD SUITE 6","ORANGE PARK","FL",32065,(904) 276-5992
"BALLET SHOP, THE","3310 HICKORY RD SUITE B-4","MISHAWAKA","IN",46545,(574) 255-3082
"BALLET SHOP, THE ","210 VALLEYBROOK ROAD","MCMURRAY","PA",15317,(201) 612-0960
"BALLETOMANIA","2 TUCKER DRIVE","POUGHKEEPSIE","NY","12603",(845) 473-3231
"BANANA DANCEWEAR","1013 ANN STREET #A","DELAVAN","WI","53115",(262) 728-3017
"BARBARA'S DANCE","1497 S. PERKINS","MEMPHIS","TN",38117,(901) 682-6898
"BAREFOOTTESS.COM","1421 CLARKVIEW ROAD STE 100B","BALTIMORE","MD",21209,(410) 337-7722
"BARRE ROOM, THE","684 WEST MAIN STREET","UNION TOWN","PA","15401",(724) 438-5678
"BARRES ""N"" BLADES","694 SOUTH LAPEER","LAKE ORION","MI",48362,(248) 693-8420
"BARRY'S CAPEZIO","2240 N. SCOTTSDALE RD.","SCOTTSDALE","AZ",85257,(480) 946-3651
"BASSNETS & BLUEBERRIES","283 EAST 17TH STREET","COSTA MESA","CA",92627,(949) 650-2244
"BATTERIE, THE","2435 S. BROAD STREET","CHATTANOOGA","TN",37408,(423) 267-7530
"BAUM'S INC","106 S.11TH ST.","PHILADELPHIA","PA",19107,(215) 923-2244
"BEAM & BARRE","352 GREENWICH AVENUE","GREENWICH","CT",06830,(203) 622-0591
"BEAN 2 TWEEN","79 JOBS LANE","SOUTHAMPTON","NY",11968,(631) 377-3640
"BEANIE  & CECIL OF WILMINGTON","1904 EASTWOOD ROAD, STE 108","WILMINGTON","NC",28403,(910) 509-9197
"BEAR ESSENTIALS CHILDRENS SHOP","1558-F AIRPORT ROAD","HOT SPRINGS","AR",71913,(501) 760-1735
"BEATWEAR INC","411 WEST MAIN STREET","VISALIA","CA",93291,(559) 627-5722
"BEAUTY BAR APOTHECARY","158 SOUTH BEVERLY DRIVE","BEVERLY HILLS","CA",90212,(310) 271-0071
"BEBENA.COM","1224 STANLEY AVE, #5","GLENDALE","CA",91206,(213) 308-9500
"BEDAZZLED BOUTIQUE","218 SOUTH NEWTOWN STREET ROAD","NEWTOWN SQUARE","PA",19073,(610) 359-1707
"BEL BAMBINI","464 N ROBERTSON BLVD","WEST HOLLYWOOD","CA",90048,(310) 855-9272
"BELLA  BEACH KIDS","225 MANHATTAN BEACH BOULEVARD","MANHATTAN BEACH","CA",90266,(310) 545-9990
"BELLA BABY","1705 E. DEL MAR","LARADO","TX",78041,(956) 237-4472
"BELLA DANCE BOUTIQUE","175 EAST ALEX-BELL ROAD SUITE 272","CENTERVILLE","OH",45459,(937) 886-6890
"BELLA JACK'S","3660 FRONT STREET STE 1","FAYETTEVILLE","AR",72703,(479) 444-8767
"BELLA-MI","1601 W. 38TH STREET, # 3","AUSTIN","TX",78736,(512) 452-3552
"BELLIES & BOOTIES","4120 QUAKERBRIDGE ROAD","LAWRENCEVILLE","NJ",08648,(609) 716-1700
"BELLIES, BABIES & BOSOMS","2430 HONOLULU AVENUE","MONTROSE","CA",91020,(818) 541-1200
"BENICIA DANCEWEAR","408 MILITARY EAST","BENICIA","CA",94510,(707) 747-5022
"BERING'S","6102 WESTHEIMER","HOUSTON","TX",77057,(713) 785-6400
"BERK'S STORES INC","272 THAYER STREET","PROVIDENCE","RI",02906,(401) 831-0174
"BERNARDI'S DANCE  ","5938 SOUTH WEST 17TH STREET","TOPEKA","KS","66604",(785) 273-2454
"BETHANY'S","707 NANCY ST.","WHITE HALL","AR",71602,(870) 267-7044
"BETTY LIN","340 PRESIDIO AVE","SAN FRANCISCO","CA",94115,(415) 345-8688
"BEULAH'S","308 E MAIN STREET","FREDERICKSBURG","TX",78624,(830) 990-2932
"BILL HALLMAN","792 NORTH HIGHLAND AVE","ATLANTA","GA",30306,(404) 876-6055
"BILLIE JO CLOTHING COMPANY","271 NORTH UNIVERSITY AVE","PROVO","UT",84601,(801) 373-4144
"BINGHAM DANCE WEAR","5109 SUNMORE CIRCLE","MIDLAND","TX",79707,(432) 689-3269
"BLACK & PINK DANCE SUPPLY","8130 SOUTH LEWIS","TULSA","OK","74137",(918) 528-3339
"BLACK MOUNTAIN DANCE","12285-L WORLD TRADE DR. SUITE L","SAN DIEGO","CA",92128,(858) 674-1006
"BLADES TO BALLET","1624 HWY 52 NORTH","ROCHESTER","MN",55901,(507) 281-1401
"BLINK BOUTIQUE","3706 LEXINGTON ROAD","LOUISVILLE","KY",40207,(502) 899-9885
"BLOOM","820  REGAL DRIVE","HUNTSVILLE","AL",35801,(256) 533-2623
"BLUE","718 CAROLINE STREET","KEY WEST","FL",33040,(305) 292-6268
"BO BO'S DANCE SUPPLY ","314 TRICE ROAD","MILNER","GA",30257,(800) 235-2626
"BOBO'S DANCE SUPPLY","2352 INGLESIDE AVE","MACON","GA",31204,(478) 738-0175
"BODIES IN MOTION","43316 ELEVEN MILE RD.","NOVI","MI",48375,(248) 305-5590
"BODIES IN MOTION","305 EAST HWY 50","CLERMONT","FL",34711,(352) 242-4391
"BODIES IN MOTION","1323 WEST EUCLID AVE","MARION","IN",46952,(765) 668-8680
"BODIES IN MOTION FOREVER","2210 E. MAIN STREET","SPRINGFIELD","OH",45503,(937) 322-6436
"BODY & SOLE","931 GREEN BAY ROAD","WINNETKA","IL",60093,(847) 446-2005
"BODY & SOLE DANCE SUPPLY","120 STATE ROAD","DARTMOUTH","MA",02747,(508) 999-2003
"BODY LANGUAGE","3111 WEST CHANDLER BLVD","CHANDLER","AZ",85226,(480) 786-4030
"BODY LANGUAGE","3111 WEST CHANDLER BLVD","CHANDLER","AZ",85226,(480) 969-7869
"BODY LANGUAGE","311 WEST CHANDLER BLVD","CHANDLER","AZ",85226,(480) 985-8686
"BODY LANGUAGE","SUPERSTITION SPRING CENTER 6555 E SOUTHERN AVE #1226","MESA","AZ","85206",(480) 985-8686
"BODY LANGUAGE  CHANDLER","1445 W. SOUTHERN 2222 FIESTA MALL","MESA","AZ","85202",(480) 969-7869
"BODYGEAR FITNESS & DANCE","150 EAST STATE STREET","ITHACA","NY",14850,(607) 273-4327
"BODYGEARS","112 WOODSTOCK AVE RT. 4 EAST","RUTLAND","VT",05701,(802) 775-2747
"BODYPHLO","1002 W.  NORTHERN LIGHTS BLVD","ANCHORAGE","AK","99503",(907) 276-1464
"BONITA","2330 LILLIE AVENUE","SUMMERLAND","CA",93067,(805) 218-4030
"BONNE NUIT","55 MAIN STREET","EAST HAMPTON","NY",11937,(631) 324-7273
"BORN YESTERDAY","86 MOSELY AVE","STATEN ISLAND","NY",10312,(718) 317-0700
"BORN YESTERDAY","1901 WALNUT STREET","PHILADELPHIA","PA",19103,(215) 568-6556
"BOTTOMS UP","2137 HAMILTON","OKEMOS","MI",48864,(517) 349-0158
"BOULDER BODY WEAR","2660 CANYON BLVD SUITE A-1","BOULDER","CO",80302,(303) 447-9100
"BOUTIQUE BOULEVARD","315 GENTRY ST #B1","SPRING","TX",77373,(281) 528-6733
"BOUTIQUE FOR CHILDREN","71-21 AUSTIN STREET","FOREST HILLS","NY",11375,(718) 261-6771
"BRA*TENDERS INC","630 9TH AVE","NEW YORK CITY","NY","10036",(212) 957-7000
"BRANDYWINE DANCE SHOPPE","3617 SILVERSIDE ROAD","WILMINGTON","DE",19810,(302) 478-4403
"BRAVA BODYWEAR, LLC","8986  MANCHESTER ROAD","ST  LOUIS","MO",63144,(314) 962-1000
"BRAVI DANCE BOUTIQUE","155 NORTH SANTA CRUZ AVE SUITE E","LOS GATOS","CA",95030,(408) 354-5144
"BREAKERS, THE","ONE SOUTH CITY ROAD","PALM BEACH","FL",33480,(561) 655-6611
"BRIDAL BOUTIQUE","134 W MAIN","DURANT","OK",74701,(580) 924-7660
"BRIGHT LIGHTS DANCEWEAR, LLC","5800 SLAUGHTER LANE BUILDING B  -  SUITE 3000","AUSTIN","TX",78749,(512) 373-8922
"BRILL'S SHOES","1367 E. HIGHLAND AVE.","SAN BERNARDINO","CA",92404,(909) 882-2116
"BRINKMAN'S SHOES","720 WEST MCGALLIARD ROAD","MUNCIE","IN",47303,(765) 288-1561
"BROADWAY DANCE CENTER","322 WEST 45TH ST. 3RD FLOOR","NEW YORK","NY",10036,(212) 582-9304
"BROADWAY DANCEWEAR 2, INC","4580-16 SUNRISE HWY","OAKDALE","NY",11769,(631) 567-2229
"BROUSSE'S","542 W PRIEN LAKE ROAD","LAKE CHARLES","LA",70601,(337) 477-0580
"BROWN SUGAR","12383 NW 80TH PLACE","PARKLAND","FL",33076,(876) 383-9346
"BSCENE","7725 TUCKERMAN LANE","POTOMAC","MD",20854,(301) 299-0194
"BTWEEN","354 DEGRAW STREET","BROOKLY","NY",11231,(718) 783-7993
"BUBBLE","3108 FILLMORE AVENUE","SAN FRANCISCO","CA",94123,(415) 771-0570
"BUBBLE & TWEET","656 OLD POST ROAD","BEDFORD VILLAGE","NY",10506,
"BUCKLES","501 AVENUE P","BROOKLYN","NY",11223,(718) 336-3177
"BUMBLE BOUTIQUE, LLC","4840 FOREST DRIVE, STE 24","COLUMBIA","SC",29206,(803) 233-9703
"BUMP, THE","951 MARKET STREET, STE 104","FORTMILL","SC",29708,(803) 548-8700
"BUSY BODIES OF LAKE NORMAN INC","122-A TRADE COURT","MOORESVILLE","NC",28117,(704) 664-6925
"BUTTER","3115 COMMODORE PLAZA","COCONUT GROVE","FL",33133,(305) 443-3434
"BUZY BODIES","3537 HWY 190","MANDEVILLE","LA",70471,(985) 875-0729
"BYU IDAHO UNIVERSITY STORE","142 MANWARING CENTER","REXBURG","ID",83460,(208) 496-3400
"C&W MERCANTILE","2385 MONTAUK HWY","BRIDGEHAMPTON","NY","11932",(631) 537-7914
"CADANCE DANCEWEAR","12424 HESPERIA ROAD SUITE 5","VICTORVILLE","CA",92395,(760) 955-9104
"CAMI VAN LLC dba CAMI","1146 HIGHLAND AVENUE","MANHATTAN BEACH","CA",90266,(310) 545-2264
"CAMILLE FRANCES DEPEDRINI","1516 MISSION STREET","SOUTH PASADENA","CA",91030,(626) 441-7868
"CANOGA PARK CAPEZIO","7128 OWENSMOUTH AVE","CANOGA PARK","CA",91303,(818) 348-4488
"CANOPY BLUE CLOTHING","3121 E MADISON STREET, STE 103","SEATTLE","WA",98112,(206) 323-1115
"CANTERELLA SCHOOL OF DANCE","210 WENDALL AVE","PITTSFIELD","MA",01201,(413) 443-5370
"CAPEZIO","982 EL MONTE","MOUNTAIN VIEW","CA","94040",(350) 965-7066
"CAPEZIO","318 SUNRISE HIGHWAY","ROCKVILLE CENTRE","NY",11570,(516) 764-1199
"CAPEZIO","5500 GROSMONT CENTER DR.","LA MESA","CA","91942",(619) 466-5595
"CAPEZIO","309 SOUTH ""B"" STREET","SAN MATEO","CA",94401,(650) 340-7066
"CAPEZIO","200 E. VIA RANCHO PARKWAY #109","ESCONDIDO","CA","92025",(760) 781-4150
"CAPEZIO","EL CAMINO NORTH CENTER 2401-C  #2 VISTA WAY","OCEANSIDE","CA","92054     ",(760) 967-6723
"CAPEZIO - AMSTERDAM","201 AMSTERDAM AVE","NEW YORK","NY","10023",(212) 586-5140
"CAPEZIO - BOSTON","330 WASHINGTON STREET","WELLESLEY","MA","02481",(781) 237-5526
"CAPEZIO - CLEVELAND #14","GREENS OF LYNDHURST 5658 1/2 MAYFIELD ROAD","LYNDHURST","OH","44124",(440) 442-8377
"CAPEZIO- DALLAS #13","WOODLANE PLAZA SHOPPING CENTER 5600 WEST LOVER'S LANE","DALLAS","TX","75209",(214) 351-2555
"CAPEZIO DANCE THEATRE SHOP","5114 BALCONES WOODS DR","AUSTIN","TX","78759",(512) 502-1150
"CAPEZIO EAST","136 EAST 61ST STREET","NEW YORK","NY","10021",(212) 758-8898
"CAPEZIO EAST UPTOWN","1651 3RD AVE 3RD FLOOR","NEW YORK","NY","10128",(212) 348-7210
"CAPEZIO SACRAMENTO","3839 H ST.","SACRAMENTO","CA",95816,(916) 452-2255
"CAPEZIO -U.T.C.","4417 LA JOLLA VILLAGE #Q5","SAN DIEGO","CA",92122,(858) 453-3402
"CAPITAL COSTUMES, INC.","8121 MADISON AVE SUITE ""F1""","FAIR OAKS","CA",95628,(916) 961-2769
"CARLY K","1047 SWARTHMORE AVE","PACIFIC PALISADES","CA",90272,(310) 454-1086
"CARMEL COBBLER","14 FAIR STREET SUITE 304","CARMEL","NY",10512,(845) 225-5275
"CARMEL'S DANCEWEAR","3004 CLEARY AVE","METAIRIE","LA",70002,(504) 457-0101
"CARMEN'S DANCE SHOES","6506-D EL CAJON BLVD.","SAN DIEGO","CA",92115,(619) 287-5787
"CAROLINA BOUTIQUE","76 THROCKMORTON AVENUE","MILL VALLEY","CA",94941,(415) 246-9988
"CAROLINA DANCEWEAR","1627 NEW GARDEN ROAD","GREENSBORO","NC",27410,(336) 856-9983
"CAROLINA HOSIERY CONNECTION","18478 FOREST ROAD SUITE 7","FOREST","VA",24551,(434) 846-5099
"CAT AND THE FIDDLE","5815 PRESTON ROAD, SUITE 560","PLANO","TX",75093,(972) 943-1005
"CATHY'S CAPEZIO","905 JAMES STREET BLDG #2","NORRISTOWN","PA",19401,(215) 256-4077
"CATHY'S PARADISE DANCEWEAR","18589 BROOKHURST STREET","FOUNTAIN VALLEY","CA",92708,(714) 962-5600
"CAVISE BOUTIQUE","273 HALSTEAD","MAMARONECK","NY",10543,(914) 381-5222
"CELEBRITY KIDS","18 WASHINGTON STREET","TENAFLY","NJ",07670,(201) 569-8469
"CENTER STAGE AT ANNETTE'S","421 TEXAS BLVD","TEXARKANA","TX",75501,(903) 793-1181
"CENTER STAGE BOUTIQUE","521 S. HWY 87 SUITE B","ORANGE","TX",77630,(409) 883-4567
"CENTER STAGE DANCE & THEATRICA","525 CEDAR HILL AVE","WYCKOFF","NJ",07481,(201) 670-1222
"CENTER STAGE DANCE APPAREL","246 DEPOT STREET SUITE C","SODDY DAISY","TN",37379,(423) 451-9912
"CENTER STAGE DANCEWEAR","183 SCOTCH ROAD","EWING","NJ",08628,(609) 323-7819
"CENTER STAGE DANCEWEAR","347 NORTH GLYNN STREET","FAYETTEVILLE","GA",30214,(770) 460-9815
"CENTER STAGE DANCEWEAR","262 ROSE DRIVE","BRUNSWICK","GA","31520",(912) 264-2124
"CENTER STAGE II","70 SOUTH PARK SQUARE","MARIETTA","GA",30060,(770) 425-9055
"CENTER STAGE II","3675 SATELLITE BLVD. SUITE 710","DULUTH","GA",30096,(770) 814-9500
"CENTERSTAGE","5012 UNIVERSITY WAY NE","SEATTLE","WA",98105,(206) 527-4697
"CENTERSTAGE DANCE APPAREL","1722 N. BELT WEST","BELLEVILLE","IL",62226,(618) 235-6032
"CENTRAL PARK DANCE","450 CENTRAL PARK AVE","SCARSDALE","NY",10583,(914) 723-2940
"CG DANCEWEAR","1049 DODD ROAD","WEST ST. PAUL","MN",55118,(651) 552-7392
"CHARLOTTE SCHOOL & BALLET BOUTIQUE","627 S. SHARON AMITY","CHARLOTTE","NC",28211,(704) 366-9675
"CHARLOTTE WEST BABY","100 MAIN STREET","MANASQUAN","NJ",08736,(732) 223-9400
"CHASING FIREFLIES","350 MIDLAND DRIVE","SEATTLE","WA",98188,(206) 574-4503
"CHAUETTE","7466 HUBBARD AVE","MIDDLETON","WI",53562,(608) 575-8412
"CHERI RAAB'S BODY SHOP","823 WASHINGTON ST.","PORT TOWNSEND","WA",98368,(360) 385-1341
"CHERRY CREEK DANCE","2625 EAST 3RD AVE","DENVER","CO",80206,(303) 399-8087
"CHIC BABY","5505 FM 1960 WEST STE 514","HOUSTON","TX",77069,(281) 397-8700
"CHILDREN'S BOUTIQUE","1702 WALNUT STREET","PHILADELPHIA","PA",19093,(215) 732-2661
"CHILDREN'S HOUR, THE","898 SOUTH 900 EAST","SALT LAKE CITY","UT",84102,(801) 359-4150
"CHILDREN'S SHOPPE, THE","325 SHARON PARK DRIVE","MENLO PARK","CA",94025,(650) 854-8854
"CHILDREN'S WONDERLAND","621 BARRINGTON AVE","LOS ANGELES","CA",90049,(310) 440-9970
"CHOICE CONNECTION, THE","68 GOODING AVE.","BRISTOL","RI",02809,(401) 253-0222
"CHORUS LINE","23300 CINEMA DRIVE #101","VALENCIA","CA","91355",(661) 253-0300
"CHURCH STREET TRADING COMPANY","4 RAILROAD STREET","GREAT BARRINGTON","MA",01230,
"CIAO BELLY","730 WASHINGTON AVE","HOBOKEN","NJ",07030,(201) 850-1853
"C-ING POLKADOTS","115 WEST 2ND STREET","OWENSBORO","KY",42303,(270) 240-4394
"CINNAMON TREE, THE","1108 HERNDON PARKWAY","HERNDON","VA",20170,(703) 435-3255
"CITY CHIC","342 YORKTOWN CENTER","LOMARD","IL",60148,(630) 932-4763
"CK and COMPANY","6419 AVONDALE DRIVE","OKLAHOMA CITY","OK",73116,(405) 843-7636
"CLASS ACT","3946 NE 5TH AVE","FT  LAUDERDALE","FL",33334,(954) 566-9825
"CLASSIC DANCEWEAR","5365 ROBIN HOOD ROAD SUITE E","WINSTON-SALEM","NC",27106,(336) 923-2585
"CLASSY KIDS","6 NORTH DEAN STREET","ENGLEWOOD","NJ",07631,(201) 568-2549
"CLAYTON'S SHOE STORE","108 WEST LINCOLN STREET","TULLAHOMA","TN",37388,(931) 455-2722
"CLOSTER BOOTERY","230 CLOSTER DOCK ROAD","CLOSTER","NJ",07624,(201) 768-0822
"COASTAL COOL","7986 EAST COAST HIGHWAY","NEW PORT COAST","CA",92660,(949) 706-1071
"COLUMBINE","101 TOWNE CENTER","CORTE MADERA","CA",94925,(415) 927-8884
"COMFORT FIT","104 LEE AVENUE","BROOKLYN","NY",11211,(718) 782-8001
"COMPETITOR'S CLOSET","1001 SANDY LANE","WARWICK","RI",02889,(401) 737-7447
"CONCEPT 3 INC","104 GREYSTONE POWER BLVD SUITE D","DALLAS","GA",30157,(678) 977-2930
"CONCEPTS IN DANCE","227 ROUTE 33 EAST, UNIT #2","MANALAPAN","NJ",07726,(888) 282-0333
"CONSERVATORY BOUTIQUE","16816 E. HWY. 40","INDEPENDENCE","MO",64055,(816) 373-3456
"CONTRA COSTA DANCE","554 YGNACIO VALLEY ROAD SUITE A","WALNUT CREEK","CA",94596,(925) 932-9660
"COQUETTE KIDWEAR","439 AVENUE U","BROOKLYN","NY",11223,(718) 627-7000
"CORDOVA DANCE WEAR ETC.","7990 TRINITY ROAD SUITE 127","CORDOVA","TN",38018,(901) 753-7375
"CORNER SHOE STORE, THE","1140 WEST MAIN SHOPPING CENTER","TUPELO","MS","38801",(662) 842-7965
"COSTUME CORNER","3820 SAN PABLO DAM ROAD SUITE A","EL SORRANTE","CA",94803,(510) 222-9200
"COSTUMES & DANCEWEAR","17330 SPRING CYPRESS SUITE 110","CYPRESS","TX","77429",(281) 758-3536
"COSTUMES & DANCEWEAR","1534 KINGWOOD DRIVE","KINGWOOD","TX","77339",(281) 913-0222
"COSTUMES & DANCEWEAR @ KATY","515 S. MASON ROAD","KATY","TX",77450,(281) 265-8044
"COSTUMES GALORE, INC","2080 LOOKOUT DRIVE","NORTH MANKATO","MN",53003,(507) 386-0207
"COTE D'AZURE","212 E. 47TH STREET","NEW YORK","NY",10017,(917) 912-9475
"COTTON TAILS","389 PERKINS EXT","MEMPHIS","TN",38117,(901) 685-8417
"COUNTRY COBBLER","1340 US HIGHWAY 206 SUITE 2","SKILLMAN","NJ",08558,(609) 683-4411
"CPW","495 AMSTERDAM AVE","NEW YORK","NY",10024,(212) 579-3737
"CREATIVE DANCEWEAR","705 W. HOLLY","BELLINGHAM","WA",98225,(360) 738-9406
"CREATIVE DANCEWEAR","9315 N. PENNSYLVANIA AVE","OKLAHOMA CITY","OK",73120,(405) 843-2545
"CREATIVE MOTION","420 SOUTH GROVE STREET","REEDSBURG","WI",53959,(608) 768-5678
"CRISTON'S DANCEWEAR","5516-A MLK BLVD","KILLEEN","TX",76543,(254) 526-6174
"CUPCAKE","641 4TH STREET","SANTA ROSA","CA",95404,(707) 579-2165
"CURRY SHOES INC. / DANCE BIZ","2535 NICHOLASVILLE RD","LEXINGTON","KY",40503,(859) 223-3400
"CUTIE PIES CHILDREN'S BOUTIQUE","5473 CHAMBLEE DUNWOODY ROAD","DUNWOODY","GA",30338,(770) 396-1392
"D BODY SHOP","2508 EAST MOCKINGBIRD LANE","VICTORIA","TX",77904,(361) 576-9664
"DAINTY BABY","3605 12TH AVE","BROOKLYN","NY",11218,(718) 305-7525
"DAISY'S DANCE & FITNESSWEAR","2635 MALL DR.","SARASOTA","FL",34231,(941) 924-8222
"DALLAS DANCEWEAR","670 PARKER SQUARE SUITE 204","FLOWER MOUND","TX",75028,(972) 899-9799
"DAMIENS DANCEWEAR INC","23 DRUMHILL ROAD","CHELMSFORD","MA",01824,(978) 459-7300
"DANCE","225 EAST COLLEGE AVE.","APPLETON","WI",54911,(920) 749-0305
"DANCE & BEYOND","1802 E. BARNETT RD.","MEDFORD","OR",97504,(541) 776-5027
"DANCE & SPORTS XPRESS LLC","11858 BRADBURN BLVD","WESTMINSTER","CO",80031,(303) 386-3203
"DANCE 101, INC.","2480 BRIARCLIFF ROAD SUITE 11","ATLANTA","GA",30329,(404) 542-3887
"DANCE AND MORE STORE","2115 MAIN DRIVE SUITE F","JOHNSON","AR",72704,(479) 595-8331
"DANCE BAG","7815 WEST CHESTER ROAD","WEST CHESTER","OH",45069,(513) 777-1155
"DANCE BAG, THE","14 WILSEY SQUARE","RIDGEWOOD","NJ",07450,(201) 444-6175
"DANCE BAG, THE","2221 MCHENRY AVE. SUITE G","MODESTO","CA",95350,(209) 571-0369
"DANCE BAG, THE","103 KIRKWOOD SQUARE","WILMINGTON","DE",19808,(302) 994-6722
"DANCE BAG, THE","314 MAIN STREET","BEACON","NY",12508,(845) 831-5813
"DANCE BAG, THE, LLC","17337 SPRING CYPRESS RD SUITE D","CYPRESS","TX",77429,(281) 758-2112
"DANCE BOUTIQUE","4531 KUTZTOWN ROAD","TEMPLE","PA",19560,(610) 921-2263
"DANCE BOUTIQUE","13717 N. DALE MABRY HWY","TAMPA","FL","33618",(813) 968-8099
"DANCE BOUTIQUE, A","1138 WEST GRANDA BLVD","ORMOND BEACH","FL",32174,(386) 671-2841
"DANCE BOUTIQUE, THE","317 SW WALNUT STREET","ANKENY","IA",50021,(515) 963-1849
"DANCE BOUTIQUE, THE","5690 EAST COUNTY LINE PLACE","HIGHLANDS RANCH","CO",80126,(720) 443-8870
"DANCE BOUTIQUE, THE","150  INDUSTRIAL DRIVE","HALIFAX","MA",02338,(781) 294-0041
"DANCE BOX, THE","527 NORTH GUIGNARD DRIVE","SUMTER","SC",29150,(803) 773-2847
"DANCE CENTER, THE","225 EAST 14TH STREET","TRAVERSE CITY","MI",49684,(231) 947-6820
"DANCE CITY-USA DANCEWEAR STORE","628 SOUTH MCCLELLAND","SANTA MARIA","CA",93454,(805) 614-0457
"DANCE COLLECTION","1500 S. 336TH ST. #5","FEDERAL WAY","WA",98003,(253) 838-4030
"DANCE COLLECTION, THE","4004 A SOUTH DUPONT HIGHWAY","DOVER","DE",19901,(302) 697-6026
"DANCE CORNER PLUS, THE","1 MORSE COURT","NEW CANAAN","CT",06840,(203) 966-2972
"DANCE COUNTS DANCE SUPPLY, LLC","114 NORTH MAIN STREET","EDWARDSVILLE","IL",62025,(618) 656-1234
"DANCE CROSSROADS","500 WASHINGTON STREET SUITE 2","NORWOOD","MA",02062,(781) 551-2700
"DANCE DEPOT","3681 MCFARLAND ROAD","MOBILE","AL",36695,(251) 635-0056
"DANCE DEPOT","4674 BRENTRIDGE PARKWAY","GREENWOOD","IN",46143,(317) 882-3285
"DANCE DEPOT","2347 N. 6TH #8","ABILENE","TX",79603,(325) 672-3010
"DANCE DEPOT","1635 S  RIDGEWOOD AVE COASTAL CENTRE, UNIT 108","S  DAYTONA","FL",32119,(386) 760-4858
"DANCE DEPOT","1313 W. BOYNTON BEACH BLVD. UNIT #7","BOYNTON BEACH","FL",33426,(561) 736-6901
"DANCE DESIGN","1728 FORDHAM BLVD SUITE 153","CHAPEL HILL","NC",27514,(919) 942-2131
"DANCE DESIGNS","929 RAYNOLDS","EL PASO","TX",79903,(915) 564-5626
"DANCE DIMENSIONS","638 MAIN STREET","LONGMONT","CO",80501,(303) 772-3750
"DANCE DIVA","869 S. MUSTANG RD.","YUKON","OK",73099,(405) 324-6630
"DANCE DYNAMICS","1222 ROYAL DRIVE","PATILLION","NE","68046",(402) 991-7165
"DANCE EMPORIUM, THE","102 CHURCH ST.","DECATUR","GA",30030,(404) 378-3302
"DANCE EMPORIUM, THE","4305 CALDER","BEAUMONT","TX",77706,(409) 895-0909
"DANCE ESSENTIALS","3 CHARLES ST.","NEWPORT","RI",02840,(401) 423-3967
"DANCE ESSENTIALS & MORE INC","4234 CORAL PARK DRIVE","BRUNSWICK","GA",31520,(912) 265-1111
"DANCE ETC","360 E. VIRGINIA AVE.","VINTON","VA","24179",(540) 345-6232
"DANCE ETC","3013 BARROW DRIVE","RALEIGH","NC",27616,(919) 981-0804
"DANCE ETC. OF NORFOLK","110 N. 2ND STREET","NORFOLK","NE",68701,(402) 379-2114
"DANCE EXCHANGE","219 WEST BROADWAY","MUSKOGEE","OK",74401,(918) 686-9393
"DANCE EXCHANGE, INC","4406 WRIGHTSVILLE AVE.","WILMINGTON","NC",28403,(910) 793-3116
"DANCE EXPRESSIONS","2609 WEST VERNON AVE","KINSTON","NC","28504",(252) 527-8680
"DANCE FACTORY WEAR, THE","11606 SAN VICENTE BLVD","LOS ANGELES","CA",90049,(310) 826-4554
"DANCE FANTASTIC","240 LONGMIRE","CONROE","TX",77304,(936) 539-5255
"DANCE FANTASY","28 MARKET COURT SUITE 100","HATTIESBURG","MS",39402,(601) 261-2540
"DANCE FASHIONS","6142 ROSWELL RD","ATLANTA","GA",30328,(404) 256-9739
"DANCE FASHIONS SUPER STORE","10400 ALPHARETTA STREET SUITE A","ROSWELL","GA",30075,(770) 998-0002
"DANCE FUSION","2964 I-70BUSINESS LOOP #5","GRAND JUNCTION","CO","81503",(970) 255-8322
"DANCE GEAR","2100 ARMORY DR.","SANTA ROSA","CA",95401,(707) 526-5858
"DANCE GEAR","575 N. 1200 WEST","OREM","UT",84057,(801) 404-5400
"DANCE GEAR & ACESSORIES","563 BARTON BLVD, #15","ROCKLEDGE","FL",32955,(321) 433-2500
"DANCE HOUSE, THE","616 BUTTERMILK PIKE","CRESCENT SPRINGS","KY",41017,(859) 344-6606
"DANCE IN THE LIGHT","NORTHFIELD SQUARE MALL 1600 N RT. 50  SUITE 220","BOURBONNAIS","IL","60914",(815) 929-0231
"DANCE LINE","30 WEST LANCESTER AVE","PAOLI","PA",19301,(610) 251-2344
"DANCE LINE, THE","2115-A  S. MINNESOTA AVE","SIOUX FALLS","SD",57105,(605) 335-8242
"DANCE MAGIC","334 WEST TABERNACLE","ST. GEORGE","UT",84770,(435) 656-2442
"DANCE MAX DANCEWEAR, LLC","3016 CANTON ROAD","MARIETTA","GA",30066,(404) 285-0341
"DANCE 'N TEES","1065 NORTH SALEM DRIVE","SCHAUMBURG","IL",60194,(847) 884-5925
"DANCE N THINGS","7954 B CRESTWOOD BLVD","BIRMINGHAM","AL",35210,(205) 956-8495
"DANCE N THINGS","1209 EASTRIDGE DRIVE","SLIDELL","LA",70458,(985) 643-2162
"DANCE 'N THINGS","8 N. MAIN ST.","ENGLEWOOD","OH",45322,(937) 836-2032
"DANCE 'N' THINGS LLC","79 EAST MAIN STREET SUITE C","SMITHTOWN","NY",11787,(631) 360-4339
"DANCE OF IOWA","2100 NORCOR AVE","CORALVILLE","IA","52241",(319) 337-4976
"DANCE OF IOWA NORTH","225 NORTHLAND COURT NE","CEDAR RAPIDS","IA",52402,(319) 373-8484
"DANCE OUTFITTERS, INC","1036 VOLVO PARKWAY SUITE 1","CHESAPEAKE","VA",23320,(757) 548-6688
"DANCE PLUS","8433 SW 132ND STREEET","MIAMI","FL",33156,(305) 255-4367
"DANCE PRO SHOP","32 COTTAGE PARK AVE","CAMBRIDGE","MA",02140,(617) 497-1448
"DANCE RAGGS","1245 VETERAN MEMORIAL HWY SUITE 46, HAWTHORNE PLAZA","MABLETON","GA",30126,(770) 944-8729
"DANCE SHOP","2100 NORCOR AVE.","CORALVILLE,","IA","52241",(319) 351-7593
"DANCE SHOP","1201 2ND ST.","SAN RAFAEL","CA",94901,(415) 459-4008
"DANCE SHOP","1019 MORRO ST.","SAN LUIS OBISPO","CA",93401,(805) 543-1955
"DANCE SHOP, THE","1871 CABANOSE AVE.","LUTCHER","LA","70071",(225) 869-8012
"DANCE SHOP, THE","517 HOLCOMBE AVE","MOBILE","AL",36606,(251) 473-3623
"DANCE SHOP, THE","2232 OLD EMMORTON ROAD","BEL AIR","MD",21015,(410) 569-0316
"DANCE SHOP, THE","3318 NORTH MIDKIFF","MIDLAND","TX",79705,(432) 697-1117
"DANCE SHOP, THE","2485 FOREST PARK BLVD","FT WORTH","TX",76110,(817) 923-0017
"DANCE SHOP,THE:  SAMFAM, INC","3614 SIXTH AVENUE","ALTOONA","PA",16602,(814) 941-1915
"DANCE SHOPPE","8712 COUNTRYSIDE PLAZA","OMAHA","NE",68114,(402) 399-8580
"DANCE SHOPPE","3841 SOUTH 48TH STREET","LINCOLN","NE",68506,(402) 466-1993
"DANCE SHOPPE, INC.","512 N.W. ENGLEWOOD RD.","KANSAS CITY","MO",64118,(816) 455-1995
"DANCE SHOPPE, THE","1204 OLYMPIC DRIVE","OXFORD","AL",36203,(256) 831-1229
"DANCE SHOPPE, THE","39 EAST FORREST AVE","SHREWSBURY","PA",17361,(717) 227-2174
"DANCE SHOWCASE","2505 N BEN JORDAN","VICTORIA","TX",77901,(361) 576-4425
"DANCE SPORT","926 24TH AVE. S.W.","NORMAN","OK",73069,(405) 447-3456
"DANCE STATION, THE","3201 E. JUDGE PEREZ SUITE 103","MUREAUX","LA",70075,(504) 279-3469
"DANCE STATION, THE  LLC","125 W. MAIN STREET","ELKTON","MD",21921,(410) 996-9445
"DANCE STORE","2509 S. ROBERTSON BLVD","LOS ANGELES","CA","90034",(310) 271-3664
"DANCE STORE, THE","2613 SHERIDAN AVE","CODY","WY",82414,(307) 527-9973
"DANCE STORE, THE","4658 COMMERCIAL DRIVE","NEW HARTFORD","NY",13413,(315) 768-0203
"DANCE STORE, THE","983 N. STATE STREET","OREM","UT",84057,(801) 224-4450
"DANCE STUF ETC.","3618 WEST 80TH LANE","MERRILLVILLE","IN",46410,(219) 736-9532
"DANCE STYLE","1260 S MILLEDGE AVENUE SUITE D","ATHENS","GA",30605,(706) 357-9441
"DANCE SUPPLIES ETC INC","537-C BALTIMORE ANNAPOLIS BLVD","SEVERNA PARK","MD",21146,(410) 647-8727
"DANCE SUPPLIES UNLIMITED","27652 CAMINO CAPISTRANO STE D","LAGUNA NIGUEL","CA",92677,(949) 334-2687
"DANCE SUPPLY","1516 SE 8TH TERRACE","CAPE CORAL","FL",33990,(239) 772-3440
"DANCE SUPPLY ETC.","133 O'FALLON PLAZA","O FALLON","MO",63366,(636) 978-9432
"DANCE SYNERGY","140 MORSE RD.","COLUMBUS","OH",43214,(614) 848-4998
"DANCE TEN AT NEWTOWN","182 N. PINE STREET","LANGHORN","PA",19047,(215) 750-3960
"DANCE THINGS & MORE","318 E. BROADWAY","ALTON","IL",62002,(618) 462-3656
"DANCE THIS WAY","79 COMMONWEALTH AVE","CONCORD","MA",01742,(978) 318-1960
"DANCE THREADZ","16481 SPRINGDALE STREET","HUNTINGTON BEACH","CA",92649,(714) 377-9902
"DANCE TOGS","3835 S.W. HALL BLVD.","BEAVERTON","OR",97005,(503) 644-7545
"DANCE TUMBLE & CHEER!","127 BROADWAY, SUITE 2","FARMINGTON","ME","04938",(207) 860-2582
"DANCE UNIQUE","112 W. MITCHELL HAMMOCK DR. SUITE 1128","OVIEDO","FL",32765,(407) 366-4585
"DANCE UNIVERSE","531 SOUTH MAIN","JOPLIN","MO",64801,(417) 781-5678
"DANCE VILLAGE","171 C SPENCER ST","MANCHESTER","CT",06040,(860) 645-6606
"DANCE WAVES STUDIO SHOP","334 SOUTH 48TH","QUINCY","IL",62305,(217) 224-5104
"DANCE WEAR ETC.","1506 S. SALISBURY BLVD.","SALISBURY","MD",21801,(410) 742-3316
"DANCE WEAR ETC.","1603 W. GORE BLVD. #B","LAWTON","OK",73501,(580) 353-5737
"DANCE WEAR UNLIMITED","4718 LEBANON RD","HERMITAGE","TN",37076,(615) 885-4498
"DANCE WEARHOUSE","2400 CYPRESS STREET SUITE 44","WEST MONROE","LA",71291,(318) 322-4875
"DANCE WITH US","1706 TALLEY HO STREET","CULLMAN","AL",35055,(256) 775-8438
"DANCE WORKS","3228 N. UNIVERSITY AVE.","PROVO","UT",84604,(801) 375-4622
"DANCE WORLD","19651 MIDDLEBELT ROAD","LIVONIA","MI",48152,(248) 477-0520
"DANCE WORLD","3827 EL CAJON BLVD.","SAN DIEGO","CA",92105,(619) 280-2150
"DANCE XTREME","6860 S. CLINTON CT. SUITE  E","ENGLEWOOD","CO",80112,(303) 708-1592
"DANCEGEAR","1007 WEST ORANGE BLOSSOM TRAIL","APOPKA","FL",32712,(407) 889-9898
"DANCE'N STUFF","8011-3 MERRILL ROAD","JACKSONVILLE","FL",32277,(904) 743-6080
"DANCE'N TEES","1500 CARLEMONT DR. SUITE L","CRYSTAL LAKE","IL","60014",(815) 477-0587
"DANCE'N TEES","109 E. COOK STREET","LIBERTYVILLE","IL","60048",(847) 884-5924
"DANCE'N TEES/ SCHAUMBURG","1065 N. SALEM DRIVE","SCHAUMBURG","IL","60194",(713) 935-9114
"DANCE-N-DUDS","5311 LOOP 205","TEMPLE","TX",76502,(254) 774-8406
"DANCE-N-STUFF","3313 E SILVER SPRING BLVD.","OCALA","FL",34470,(352) 369-7344
"DANCE-N-THINGS","6015 LOHMAN FORD #109","LAGO VISTA","TX",78645,(512) 267-2679
"DANCEON","30 MESSER STREET","LACONIA","NH",03246,(603) 528-3267
"DANCER DE JOUR","1283 EL CAMINO REAL","MENLO PARK","CA",94025,(650) 321-4000
"DANCER STORE, THE","101 6TH STREET SUITE 11","NORTH WILKSBORO","NC",28659,(336) 667-3262
"DANCER THE","214 TALLYWOOD SHOP CENTER","FAYETTEVILLE","NC",28303,(910) 484-7071
"DANCERS AVENUE","6787 WEST Q AVE","KALAMAZOO","MI",49009,(269) 544-0224
"DANCER'S BAG","319 W. 18TH STREET","CHEYENNE","WY",82001,(307) 634-9945
"DANCER'S BAG, THE","133 EAST WATER STREET","SANDUSKY","OH",44870,(419) 621-0878
"DANCERS BOUTIQUE","5741 N. ORACLE RD.","TUCSON","AZ",85704,(520) 887-1958
"DANCER'S BOUTIQUE","3207 CASCADE DRIVE, STE# G","VALPARAISO","IN",46383,(219) 462-3160
"DANCER'S BOUTIQUE","1210 N. MAYFLOWER DRIVE","APPLETON","WI",54913,(920) 734-5866
"DANCER'S BOUTIQUE","143A JOHN FITCH HWY","FITCHBURG","MA",01420,(978) 343-6171
"DANCERS' BOUTIQUE","1220-B RICHMOND RD","WILLIAMSBURG","VA","23185",(757) 220-6703
"DANCER'S BOUTIQUE, THE","224 MAIN ST.","EAST HAVEN","CT",06512,(203) 469-6637
"DANCER'S BOUTIQUE, THE","2414 E.STADIUM BLVD.","ANN ARBOR","MI",48104,(734) 973-1178
"DANCER'S BOUTIQUE, THE","451 HWY 74 SOUTH","PEACHTREE","GA","30269",(770) 631-8948
"DANCER'S CHOICE","27131 ALISO CREEK ROAD SUITE 160","ALISO VIEJO","CA",92656,(949) 305-7230
"DANCER'S CHOICE","UNIVERSITY CENTER 4237 CAMPUS DRIVE SUITE B155","IRVINE","CA","92612",(949) 387-2003
"DANCER'S CLOSET","3267 BEE CAVES ROAD #133","AUSTIN","TX",78746,(512) 327-0200
"DANCER'S CLOSET","4180-1 JOG ROAD","LAKE WORTH","FL",33463,(561) 965-2878
"DANCER'S CLOSET","1762 LYTER DR","JOHNSTOWN","PA","15905",(814) 255-2971
"DANCER'S CLOSET","401 SILAS DEANE HIGHWAY","WETHERSFIELD","CT",06109,(860) 436-3552
"DANCER'S CLOSET","661 ANDERSON ST.","WINNEMUCCA","NV",89445,(775) 623-9001
"DANCER'S CLOSET #2","107 RR 620 SOUTH #106","LAKEWAY","TX","78734",(512) 266-0900
"DANCER'S CLOSET II, INC","4742 LITTLE ROAD","ARLINGTON","TX",76017,(817) 572-4009
"DANCER'S CLOSET LLC","535 HIGH STREET","EUGENE","OR",97401,(541) 868-1708
"DANCER'S CLOSET, THE","687 RIVER ROAD","NEW MILFORD","NJ",07646,(201) 986-0900
"DANCER'S CLOSET, THE","2059 LISTRAVIA AVE","MORGANTOWN","WV",26505,(304) 296-3294
"DANCER'S CLOSET, THE","112 DANIEL WEBSTER HWY","NASHUA","NH",03060,(603) 888-6700
"DANCER'S CLOSET, THE","253 E. PITTSBURGH STREET","GREENSBURG","PA",15601,(724) 832-1501
"DANCER'S CLOSET, THE","210 NORTH TOWNE COURT","NEWARK","OH",43055,(740) 366-2286
"DANCER'S DEN","343 SANDERSON STREET","ALCOA","TN",37701,(865) 980-2014
"DANCER'S DEN, THE","8020 MESA DRIVE","AUSTIN","TX",78731,(512) 345-7710
"DANCERS DRAWER, THE","41 N. WASHINGTON ST.","N. ATTLEBORO","MA",02760,(508) 643-1357
"DANCER'S DREAM","597 WASHINGTON ST","WHITMAN","MA",02382,(781) 447-0771
"DANCER'S DREAMS & GIFTS","1309 WOODSIDE AVE","ESSEXVILLE","MI",48732,(989) 891-0199
"DANCER'S EDGE","306 WINTHROP ST.   STE. 3","TAUNTON","MA",02780,(508) 822-0011
"DANCER'S IMAGE","849 WASHINGTON STREET","NEWTONVILLE","MA",02460,(617) 964-4070
"DANCERS LAIR","14452 HIGHWAY 44 SUITE D","GONZALES","LA",70737,(225) 622-7008
"DANCER'S LOFT INC, THE","150 S. BOSTIAN ST.","CHINA GROVE","NC",28023,(704) 857-6312
"DANCERS NOOK, THE","209 NORTH WASHINGTON","ENID","OK",73701,(580) 242-2622
"DANCER'S PLACE A","14 PATTON AVE","ASHVILLE","NC",28801,(828) 253-1434
"DANCER'S PLACE, THE","64 ENTERPRISE ROAD","HYANNIS","MA",02601,(508) 771-2233
"DANCERS POINTE","4954 DARROW ROAD","STOW","OH",44224,(330) 655-5542
"DANCER'S POINTE","122 LOUISIANA AVE","PERRYSBURG","OH",43551,(419) 874-0330
"DANCER'S POINTE, INC","201 WEST MAIN STREET","HUMMELSTOWN","PA",17036,(717) 583-1820
"DANCER'S SHOP","1935 STATE STREET","HAMDEN","CT",06517,(203) 498-7837
"DANCERS' SHOP, THE","107B SHERMAN AVE.","RARITAN","NJ",08869,(908) 526-3170
"DANCER'S SHOPPE, THE","147 NORTH PETERS ROAD","KNOXVILLE","TN",37923,(865) 692-1922
"DANCER'S WARDROBE, THE","101 WASHINGTON SQUARE PLAZA SUITE 102A","FREDERICKSBURG","VA",22405,(540) 899-9880
"DANCERS WAREHOUSE","91 MEDWAY STREET","MILFORD","MA","01757",(508) 634-3262
"DANCER'S WAREHOUSE","330 WASHINGTON","WELLESLEY","MA","02481",(781) 237-5526
"DANCER'S WEARHOUSE","2655-D TAPO CANYON ROAD","SIMI VALLEY","CA",93063,(805) 578-4622
"DANCER'S WORLD","2848 PINE GROVE AVE.","PORT HURON","MI",48060,(810) 984-3870
"DANCER'S WORLD INC.","2348 WHITNEY AVE","HAMDEN","CT",06518,(203) 248-9304
"DANCERXISE","8871 SW 24TH ST.","MIAMI","FL","33165",(305) 225-7377
"DANCESTUFF","2209-A HAMILL RD.","HIXSON","TN",37343,(423) 877-0764
"DANCEWARE LLC","2606 MCDOWELL","AUGUSTA","GA",30904,(706) 738-9996
"DANCEWARES, INC.","2150 WINTHROP ROAD","LINCOLN","NE",68502,(402) 488-2111
"DANCEWEAR CENTER","8425- 122ND AVE NORTH EAST","KIRKLAND","WA",98033,(425) 827-6343
"DANCEWEAR CENTER","3834 LIBERTY STREET","ERIE","PA",16509,(814) 864-8881
"DANCEWEAR CONNECTION","300 WEST CANAL STREET","PICAYUNE","MS",39466,(601) 749-9355
"DANCEWEAR ETC","119 N. MAIN STREET","KERNERSVILLE","NC",27284,(336) 993-8747
"DANCEWEAR ETC","4353 GANNON LANE #108","DALLAS","TX",75237,(972) 780-8657
"DANCEWEAR ETC.","699  MAST ROAD","MANCHESTER","NH",03102,(603) 625-9546
"DANCEWEAR ETC.","11043 FUQUA","HOUSTON","TX",77089,(713) 944-3016
"DANCEWEAR EXPRESS","3910 BUFFAL0 RD","ROCHESTER","NY",14624,(585) 594-5430
"DANCEWEAR GALLERY","845 NE 125TH STREET","NORTH MIAMI","FL",33161,(305) 892-9961
"DANCEWEAR GALLERY","44926 FORD ROAD","CANTON","MI",48187,(734) 207-7730
"DANCEWEAR GALORE & MORE","1305 CEDARCREST ROAD","DALLAS","GA",30132,(770) 529-3445
"DANCEWEAR HOUSE","128 WATER STREET","HALLOWELL","ME",04347,(207) 623-3488
"DANCEWEAR HOUSE, THE","1491 N. MILPITAS BLVD","MILPITAS","CA",95035,(408) 262-9216
"DANCE-WEAR HOUSE, THE","5390 FULTON DRIVE N.W.","CANTON","OH",44718,(330) 497-9419
"DANCEWEAR INC.","3535 E. LITTLE COTTONWOOD LANE","SANDY","UT",84092,(801) 255-0449
"DANCEWEAR PLUS!","9153 EAST BELL ROAD","SCOTTSDALE","AZ",85260,(480) 860-4440
"DANCEWEAR TOO","59A SOUTH STATE STREET","WESTERVILLE","OH",43081,(614) 794-3222
"DANCEWEAR UNLIMITED","21 BROADWAY SUITE B","WOODCLIFF LAKE","NJ",07677,(201) 307-1800
"DANCEWEAR UNLIMITED","2385 EAST GAUSE BLVD SUITE #7","SLIDELL","LA",70461,(985) 646-1770
"DANCIN' FEET DANCEWEAR, INC.","16077 EUREKA","SOUTHGATE","MI",48195,(734) 246-8300
"DANCIN' ON THE MOON","405 ROUTE 18 SOUTH","EAST BRUNSWICK","NJ",08816,(732) 238-8808
"DANCIN' TREADS & THREADS","1101 WEST MAIN STREET","BLUE SPRINGS","MO",64015,(816) 220-1233
"DANCING DIVA","245 EAST 77TH SUITE 1FE","NEW YORK","NY","10075",(917) 279-4351
"DANCING DOLL, THE","6830 N.W. 169TH ST.","MIAMI","FL",33015,(305) 826-0671
"DANCING SHOE, THE","12995 S CLEVELAND AVE SUITE 132","FT  MYERS","FL",33907,(239) 939-2124
"DANCING SUPPLIES DEPOT","10556 S.W. 8TH STREET","MIAMI","FL",33174,(305) 226-0666
"DANCINGLY YOURS","125 EAST STREET","PLAINVILLE","CT",06062,(860) 793-1077
"DANDELION","145 EAST PROSPECT AVE","DANVILLE","CA",94521,(925) 406-4727
"DANS LA DANSE DANCEWEAR","17961 SKY PARK CIRCLE BUILDING 38-J","IRVINE","CA",92614,(949) 553-9900
"DANSE BOUTIQUE","637 LONDONDERRY LANE","DENTON","TX","76205",(940) 484-5096
"DANSE BOUTIQUE  ~","5427 MERCEDES AVE.","DALLAS","TX",75206,(940) 484-5096
"DANSTUFF","56 STATE STREET","PORTSMOUTH","NH",03801,(978) 263-2129
"DANZGEAR","607 E. SONTERRA BLVD","SAN ANTONIO","TX",78258,(210) 491-9016
"DARI","12184 VENTURA BLVD","STUDIO CITY","CA",91604,(818) 762-3274
"DARIEN SPORT","1127 POST ROAD","DARIEN","CT",06820,(203) 455-7798
"DARIOUSH","4240 SILVERADO TRAIL","NAPA","CA",94558,(707) 257-2345
"DAVIS DANCEWEAR","2037 SHERMAN AVE.","MADISON","WI",53704,(608) 241-4305
"DAZZLE","6  NORTH POINTE PKWY","ENTERPRISE","AL",36331,(334) 347-2903
"DAZZLE DANCE BOUTIQUE, LLC","401 10TH AVENUE","JASPER","AL",35501,(205) 387-9337
"DEBBIE'S DANCE BOUTIQUE","3063-13 ENTERPRISE ROAD","DEBARY","FL",32713,(407) 304-6241
"DEBEUCO","42 WEST COLORADO BLVD","PASADENA","CA",91105,(626) 405-9985
"DEB'S DANCEWEAR & UNIFORM","111 SOUTH 24TH STREET WEST SUITE 207","BILLINGS","MT",59102,(406) 656-7838
"DEE'S DANCE DESIGN","17185 S.E. MCLOUGHLIN SUITE K","MILWAUKIE","OR",97267,(503) 652-0475
"DEE'S DANCEWEAR","3050 N.DOBSON ROAD #1","CHANDLER","AZ",85224,(480) 964-6703
"DEE'S DANCEWEAR","4727 E BELL ROAD  #49","PHOENIX","AZ",85032,(602) 867-3340
"DEE'S DANCEWEAR","7942 WEST BELL RD SUITE C4","GLENDALE","AZ",85308,(623) 486-7660
"DEFINITELY DANCE INC","133 W. LINCOLN HIGHWAY","EXTON","PA",19341,(610) 524-1891
"DEGAGE' DANCE WEAR","10350 METCALF","OVERLAND PARK","KS",66212,(913) 381-8492
"DEKA DANCE & SPORTSWEAR","433 YORK STREET","HANOVER","PA",17331,(717) 632-2139
"DELMONICO'S BABY BOUTIQUE","307 W MERMOD STREET","CARLSBAD","NM",88220,(575) 887-2229
"DENIM N DAISIES","8 BROADWAY","DENVILLE","NJ",07834,(973) 331-9009
"DENNY'S CHILDRENS WEAR","343 B SOUTH OYSTER BAY ROAD","PLAINVIEW","NY",11803,(516) 681-4490
"DENTON COSTUME & DANCE WORLD","2201 SOUTH 1-35 EAST SUITE M-13","DENTON","TX",76205,(940) 387-4825
"DESIGNING DREAMS","216 E JERICHO TURN PIKE","MINEOLA","NY",11501,(516) 248-1988
"DI RUBIO","4707 NEW UTRECHT AVE","BROOKLYN","NY",11219,(718) 633-6262
"DIAMOND DANCEWEAR","13641 CENTRAL AVENUE SUITE J.","CHINO","CA",91710,(909) 590-4445
"DIANA'S CLASSIC CHILDREN","1 AUGUSTA STREET, STE 204","GREENSVILLE","SC",29601,(305) 495-8823
"DIANA'S DANCE & FITNESS WEAR","8958 BLUE ASH ROAD","CINCINNATI","OH",45242,(513) 792-0970
"DIMPLES & DANDELIONS","11290 GRACELAND LANE","FRISCO","TX",75034,(888) 825-8145
"DISCO SPORTS, INC","1400 STARLING DR.","RICHMOND","VA",23229,(804) 285-4242
"DISTRACTIONS, INC.","12410 MONTWOOD DRIVE","EL PASO","TX",79928,(915) 593-0803
"DIVA DANCEWEAR","3811 MARKET PLACE CIRCLE","TRAVERSE CITY","MI",49684,(231) 941-4234
"DIVA DANCEWEAR","10900 LOS ALAMITOS BLVD SUITE 142","LOS ALAMITOS","CA",90720,(562) 493-8694
"DIVA DANCEWEAR BOUTIQUE, THE","337 WEST BROAD STREET","HAZLETON","PA",18201,(570) 454-1418
"DIVA TEAMS","4500 155N SUITE 155","JACKSON","MS",39211,(601) 594-4186
"DK'S DANCEWEAR","6847 C NORTH 9TH AVE","PENSACOLA","FL",32504,(850) 477-4755
"DK'S DANCEWEAR","251 MARY ESTHER BLVD.","MARY ESTHER","FL",32569,(850) 664-6164
"DK'S DANCEWEAR","1209 AIRPORT ROAD UNIT 4","DESTIN","FL","32541",(850) 664-6164
"DOLENTE'S DANCE FACTORY, INC.","6825 TILTON ROAD #18","EGG HARBOR TOWNSHIP","NJ",08234,(609) 272-1088
"DOMESTIC BLISS","166 WEST MAIN STREET","MESA","AZ",85201,(480) 733-5558
"DOODLES","2504 RICE BLVD","HOUSTON","TX",77005,(713) 528-2900
"DOROTHY'S  DANCE SHOP","434 NORTH LOOP 1604 WEST #1102","SAN ANTONIO","TX","78232",(210) 545-4700
"DOROTHY'S DANCE SHOP","11255 HUEBNER ROAD SUITE 107","SAN ANTONIO","TX","78230     ",(210) 558-4200
"DOROTHY'S DANCE SHOP","1532 AUSTIN HIGHWAY","SAN ANTONIO","TX",78218,(210) 829-8454
"DOROTHY'S DANCE SHOP","2000 IH-35 #N3","ROUND ROCK","TX",78681,(512) 454-8387
"DOVE DANCEWEAR","1329-B EAST REPUBLIC ROAD","SPRINGFIELD","MO",65804,(417) 883-6811
"DOWNTOWN DANCEWEAR, LLC","648 CASTELL AVENUE","NEW BRAUNFELS","TX",78130,(830) 214-0499
"DREAM MAKERS DANCEWEAR","29246 THREE NOTCH ROAD","MECHANICSVILLE","MD",20659,(301) 290-0475
"DREAM'S DANCEWEAR AND GIFTS","2691 HWY 42 NORTH","MCDONOUGH","GA",30253,(770) 389-4888
"DRESS 2 DANCE","30 EAST GLENSIDE AVENUE","GLENSIDE","PA",19038,(215) 884-5756
"DRESS CODE, LLC","1007 E. JUDGE PEREZ DR","CHALMETTE","LA","70043",(504) 452-8822
"DRESSED 2 DANCE","1004 N. DIERS AVE. SUITE 324","GRAND ISLAND","NE",68803,(308) 382-4160
"DUCK DUCK GOOSE","5860 NORTH MESA STREET STE 116","EL PASO","TX",79912,(915) 833-6221
"DUCK POND, THE","17300 EAST 17TH STREET","TUSTIN","CA",92780,(714) 730-7232
"DYGON DANCE SUPPLIES","241 MIDLINE ROAD","AMSTERDAM","NY",12010,(518) 883-8926
"DYNAMIC DANCE STUDIO","114 W. MAIN","ADA","OK","74820",(530) 332-1896
"E&I TREASURE SHOES, INC.","399 KINGSTON AVE","BROOKLYN","NY",11225,(718) 756-4741
"EAT YOUR SPINACH","42 EAST RIDGEWOOD AVENUE","RIDGEWOOOD","NJ",07642,(201) 444-5503
"ECHAPPE DANCE & FITNESS","223 W. FOURTH STREET","QUARRYVILLE","PA",17566,(717) 940-4078
"EDIT NEW YORK","1368 LEXINGTON AVE","NEW YORK","NY",10128,(212) 876-1368
"EGGY","8365 WEST 3RD STREET","LOS ANGELES","CA",90048,
"ELAINE'S LITTLE SHOE BOX","602 VALLEY ROAD","MONTELAIR","NJ",07043,(973) 744-3007
"ELEGANT CHILD","59 SOUTH FEDERAL HIGHWAY","BOCA RATON","FL",33432,(561) 416-0152
"ELLA ARDEN","6 MOCKINGBIRD LANE","LITTLE ROCK","AR",72207,(501) 256-5862
"ELLA BELLA","2001 W. SOUTH LAKE BLVD","SOUTHLAKE","TX",76092,(817) 488-3640
"ELLA'S","209 EAST FRONT STREET","TRAVERSE CITY","MI",49684,(231) 947-9401
"ELLMAN'S","3339 WEST CARY ST.","RICHMOND","VA",23221,(804) 358-0655
"ELOISE","219 W WATER STREET","CHARLOTTESVILLE","VA",22902,(434) 295-3905
"EM AND ME","5521 TIMOTHY DRIVE","SAN DIEGO","CA",92105,(619) 855-9128
"EMPIRE DANCE SHOP","131 SOUTH SHERMAN STREET","SPOKANE","WA",99202,(509) 747-7808
"EN ARABESQUE","15 N. SEVENTH STREET","PERKASIE","PA",18944,(215) 453-5950
"EN L'AIR DANCEWEAR, LLC","1400 FM 407 #2","LEWISVILLE","TX",75077,(972) 966-8006
"EN POINTE DANCEWEAR & ACC."," 250 WEST 14 MILE ROAD","CLAWSON","MI",48017,(248) 435-8998
"ENCHANTED POINTE, THE","226 NORTH 6TH STREET","LAFAYETTE","IN",47901,(765) 497-0835
"ENCHANTED POINTE, THE","117 NORTH 36TH","LAFAYETTE","IN","47905",(765) 497-0835
"ENCORE","364 WEST  OLD COUNTRY ROAD","HICKSVILLE","NY",11801,(516) 935-0829
"ENCORE APPAREL IN MOTION","108 E. WASHINGTON  STREET","SHEPHERDSTOWN","WV","25443",(304) 876-3040
"ENCORE DANCE & BODYWEAR","10510 S.PROGRESS WAY # 103","PARKER","CO",80134,(303) 841-7233
"ENCORE DANCEWEAR","1174 FISCHER BLVD","TOMS RIVER","NJ",08753,(732) 270-9150
"ENCORE THEATRICAL SUPPLY","1845 YGNACIO VALLEY ROAD","WALNUT CREEK","CA","94598",(510) 463-2140
"ENCORE THEATRICAL SUPPLY","5556 C SPRINGDALE AVE.","PLEASANTON","CA",94588,(925) 463-2140
"ENNIE'S DANCEWEAR","3334 SEVERN","METAIRIE","LA",70005,(504) 834-2034
"ENSUENOS","CALLE DRIVE  RUFO#41","CAGUAS","PR",00725,(787) 743-7060
"ENZYME SHOELAB","1309 KINGS HWY","BROOKLYN","NY",11229,(718) 375-2148
"EPSTEIN'S DRY GOODS INC","21 COLUMBUS AVENUE","TUCKAHOE","NY",10707,(914) 961-2833
"ESCOTT PLACE/ SWEATS ETC.","160 SOUTH AUBURN STREET","GRASS VALLEY","CA",95945,(530) 271-0783
"ESP WELLNESS","625 MONTANA AVENUE, SUITE M","SANTA MONICA","CA",90403,(310) 260-0066
"EVERYTHING DANCE","200 SOUTH BELL BLVD SUITE F 2","CEDAR PARK","TX",78613,(512) 258-5005
"EVERYTHING DANCE","980 12TH AVENUE SOUTH","ONALASKA","WI",54650,(608) 779-4642
"EVERYTHING DANCE","3791 NW CARY PARKWAY","CARY","NC",27513,(919) 481-6509
"EVERYTHING DANCE","246 BLOOMFIELD AVE","CALDWELL","NJ",07006,(973) 618-9911
"EVE'SAPPLE.COM","4429 PERKINS RD, BLD A, STUDIO 2","BATON ROUGE","LA",70806,(225) 926-8228
"EVOLUTION DANCEWEAR","707 EAST PALO VERDE DRIVE","PHOENIX","AZ",85014,(602) 234-1247
"EXPERIENCE SHOE COMPANY","911 WESTERN AVE SUITE 212","SEATTLE","WA",98104,(206) 624-0960
"EXPRESS YOURSELF DANCE APPAREL","4901 N. KICKAPOO SUITE 1368","SHAWNEE","OK",74804,(405) 273-4663
"EXPRESSIONS","34-40 EAST TREMONT AVE","BRONX","NY",10465,(917) 731-4470
"EXPRESSIONS DANCE ACADEMY","640 HARVEST PARK DRIVE STE E","BRENTWOOD","CA",94513,(925) 634-3339
"EXPRESSIONS IN DANCEWEAR","6247 BLUE RIDGE BLVD.","RAYTOWN","MO",64133,(816) 353-2232
"EXPRESSLY MOTION","24028 VISTA MONTANA","TORRANCE","CA",90505,(310) 378-2204
"EXPRESSLY MOTION","629 N. PACIFIC COAST HWY","REDONDO BEACH","CA","90277",(310) 379-2204
"EXTREME DANCE SUPPLY","1463 ST. CHARLES ST. SUITE 900","HOUMA","LA",70360,(985) 262-4033
"FABULOUS FEET","43761 NORTH 15TH STREET","LANCASTER","CA",93534,(661) 723-6448
"FABULOUS FEET DANCEWEAR","3705 HARRISON AVE","CINCINNATI","OH",45211,(513) 661-2241
"FAHRENHEIT 451","105 MAIN STREET","WESTHAMPTON BEACH","NY",11978,(631) 288-5724
"FAIR INC., THE","2260 TERMINAL ROAD","ROSEVILLE","MN",55113,(651) 631-1415
"FAMILY HOSE CENTER","4719 NEW UTRECHT AVE","BROOKLYN","NY",11219,(718) 438-2127
"FANCI FOOTWORKS","49970 VAN DYKE","SHELBY TOWNSHIP","MI",48317,(586) 731-9350
"FANCY DANCER","18351 TOMBALL PKWY SUITE F","HOUSTON","TX","77070",(281) 890-0100
"FANCY DANCER","23517 NINE MACK DR.","ST  CLAIR SHORES","MI",48080,(586) 775-4167
"FANCY FEET PLUS","67 EAST ST","LUDLOW","MA",01056,(413) 583-8779
"FANTASIA DANCE AND MOTION","31570 STATE ROUTE 20 #201A","OAK HARBOR","WA",98277,(360) 240-8326
"FESTIVE FOLLIES","68-703 PEREZ ROAD #18","CATHEDRAL CITY","CA",92234,(760) 770-1907
"FINE ARTS BOUTIQUE","200 ARCENEAUX ST.","LAFAYETTE","LA",70506,(337) 233-2022
"FINER POINTES","140 PREBLE STREET","PORTLAND","ME",04101,(207) 772-8180
"FIREFLY","1409 ABBOTT KINNEY BLVD","VENICE","CA",90291,(310) 450-6288
"FITNESS UNDERGROUND","724 AVE -U","BROOKLYN","NY",11223,(718) 375-9795
"FITZ & EMME","104 NORTH BARRETT SQUARE #1B","ROSEMARY BEACH","FL",32461,(850) 231-3200
"FLEUR DE LIS","2416 OLD HICKORY LANE","HARTSVILLE","SC",29550,(843) 383-4438
"FLICKA","204 N LARCHMONT BLVD","LOS ANGELES","CA",90004,(323) 466-5822
"FLORA OTTIMER SHOP","1010 SEMINOLE DRIVE #913","FORT LAUDERDALE","FL",33304,(954) 463-2292
"FLORIDA ARTS & DANCE CO","57 S.W. MONTEREY ROAD","STUART","FL",34994,(772) 288-4150
"FLUTTER, INC","1520 FILLMORE SUITE 3","TWIN FALLS","ID","83301",(208) 735-0904
"FLYING ""D"" DANCEWEAR","4700  N. UNIVERSITY #5","PEORIA","IL",61614,(309) 692-8212
"FLYING PEAS","651 ST. MARY'S ROAD","LAFAYETTE","CA",94549,(415) 336-3611
"FOOT STOP SHOES","1475 BERGEN BLVD","FORT LEE","NJ",07024,(201) 314-6079
"FOOTLIGHTS","306 EAST CHURCH STREET","FREDERICK","MD",21701,(301) 696-1558
"FOOTLIGHTS","10720 RODNEY PARHAM ROAD","LITTLE ROCK","AR","72212",(501) 227-5446
"FOOTLIGHTS","4421 SIX FORKS ROAD 103-B","RALEIGH","NC",27609,(919) 784-9499
"FOOTLIGHTS/ TOPEKA BALLET","5240 S.W. 17TH SUITE 140","TOPEKA","KS",66604,(785) 273-5680
"FOOTLOOSE","2308-B HENRY CLOWER BLVD","SNELLVILLE","GA",30078,(770) 972-6634
"FOOTLOOSE DANCEWEAR","1050 UNION ROAD","WEST SENECA","NY",14224,(716) 674-8133
"FOOTLOOSE DANCEWEAR INC.","213 OLD YORK ROAD","JENKINTOWN","PA",19046,(215) 886-2255
"FOOTPRINCE","218 WALLABOUT STREET","BROOKLYN","NY",11206,(718) 858-3590
"FOOTPRINTS BOOTERY","58 MIDDLENECK ROAD","GREAT NECK","NY",11021,(516) 829-3505
"FOOTSTEPS DANCEWEAR INC.","24048 LORAIN ROAD","NORTH OLMSTED","OH",44070,(440) 779-0500
"FORAVI","40 CENTRAL PARK SOUTH","NEW YORK","NY",10019,(212) 288-1773
"FOREST & ZOE","2711 N SEPULVEDA BLVD #227","MANHATTAN BEACH","CA",90266,
"FOUR & TWENTY SAILORS","1328 FOOTHILL BLVD","SALT LAKE CITY","UT",84109,(801) 485-2951
"FOUR SEASONS SPORTS AND DANCE SHOPPE","803 FAIRVIEW DR.","WAPAKONETA","OH",45895,(419) 738-6611
"FOX'S","79 MAIN STREET","MINEOLA","NY",11501,(516) 294-2678
"FRANKELS DESIGNER SHOES","86 ROUTE 59","MONSEY","NY",10952,(845) 356-4031
"FRANKIES ON THE PARK","2322 NORTH CLARK STREET","CHICAGO","IL",60614,(773) 248-0400
"FREDERICK CAPITELLI MUSIC AND DANCEWEAR","658 W. INDIANTOWN ROAD SUITE 210","JUPITER","FL",33458,(561) 575-5313
"FREE TO BE","501 WEST NORTH AVE","CHICAGO","IL",60610,(925) 788-6805
"FREEMOTION","2475 WILLOW PARK RD.","BETHLEHEM","PA",18017,(610) 758-9397
"FREESTYLE DANCEWEAR","2 WEST SOUTHERN AVE.","SOUTH WILLIAMSPORT","PA",17702,(570) 601-4767
"FRENCH CUFF BOUTIQUE","4048 BELLAIRE BLVD","HOUSTON","TX",77025,(713) 665-3336
"FULL OUT! DANCE & ACTIVEWEAR","4422 EAST CAMELBACK ROAD","PHOENIX","AZ",85018,(602) 955-8803
"G. GILBERT","1198 HOWELL MILL ROAD","ATLANTA","GA",30318,(404) 355-3713
"GA GA CHIC","712 WEST SHAW STE B","FRESNO","CA",93704,(559) 226-0462
"GAFS LLC","273 WILLARD STREET","QUINCY","MA",02169,(617) 770-4237
"GAGA","2810 MANCHACA","AUSTIN","TX",78704,(512) 462-4510
"GAGA","1631 EAST 15TH STREET","TULSA","OK",74120,(918) 749-4400
"GAIL FREDERICK ACTIVEWEAR","2971 5TH STREET","CORBIN","KY",40701,(606) 528-5926
"GALE'S STUDIO OF DANCE","6345 AIRPORT BLVD SUITE F","MOBILE","AL",36608,(334) 343-9544
"GALO SHOES","825 LEXINGTON AVENUE","NEW YORK","NY",10065,(212) 980-1319
"GAMEDAY SPORTS","1223 WASHINGTON STREET","FRANKLINTON","LA",70438,(985) 839-0302
"GEARED TO DANCE","404 S. MAIN ST.","WINTER GARDEN","FL","34787",(407) 497-9774
"GEMGEM","15527 AZALEA DRIVE","TUSTIN","CA",92782,(877) 515-7878
"GEM'N'I, THE","1990 RTE 70 EAST","CHERRY HILL","NJ",08003,(856) 751-5530
"GENERRA PUBLIC CLOTHING COMPANY","70 TRIANGLE BLVD","CARLSTADT","NJ",07072,(201) 460-7111
"GERLOCK DANCE STUDIO","4476 NORTH VALDOSTA ROAD","VALDOSTA","GA",31605,(229) 460-2542
"GET DANCEWEAR.COM","1010 NORTH STEPHANIE UNIT C-11","HENDERSON","NV",89014,(702) 879-8536
"GET PHYSICAL","PARANA STREET 1721","SAN JUAN","PR",00926,(787) 767-8610
"GET SERIOUS DANCEWEAR, LLC","4300 ROGERS AVE. SUITE 32","FORT SMITH","AR",72903,(479) 782-3530
"GET WET SHOP","3229 AMBASSADOR CAFFERY","LAFAYETTE","LA",70506,(337) 981-7946
"GET WET, INC","1314 N GREEN RIVER ROAD","EVANSVILLE","IN",47715,(812) 962-0024
"GIGGLE MOON","720 5TH AVENUE SOUTH","NAPLES","FL",34102,(239) 643-3833
"GIGGLEBRUSH DESIGNS","7405 BRAEMAR","MCKINNEY","TX",75069,(800) 609-3426
"GIGGLES","14830 CAPTIVA DRIVE, SOUTH SEA RESORT","CAPTIVA","FL",33924,(239) 395-0700
"GIGI'S","62 MAIN STREET","ROSEMARY BEACH","FL",32413,(850) 231-0110
"GIGI'S DANCE CLOSET","468 SOUTH SIERRA MADRE BLVD.","PASADENA","CA",91107,(626) 432-1968
"GIGI'S TUTU","420 'A' CHURCH STREET","ANDALUSIA","AL","36421",(334) 388-2534
"GINGERBREAD KIDZ","1 CHASE ROAD","SCARSDALE","NY",10883,(914) 472-1930
"GINGER'S DANCE & FITNESS BTQ","901 W. YAKIMA AVE 4B","YAKIMA","WA",98902,(509) 249-2995
"GINGERSNAPS KIDS","201 UNIVERSITY OAKS #520","ROUND ROCK","TX",78665,(512) 653-1095
"GLASS SLIPPER, THE","6 SOUTH 100 WEST","AMERICAN FORK","UT",84003,(801) 756-7999
"GLOBE THEATRICAL","813 PEARL","SIOUX CITY","IA",51101,(712) 255-0972
"GLORIA'S BODYWEAR BOUTIQUE","224 NORTH MAIN STREET","DAVISON","MI",48423,(810) 653-5899
"GO FIGURE","301 NORTH COUNTRY CLUB ROAD","GARLAND","TX",75040,(972) 276-6700
"GOLD COAST KIDS","445 NORTH BROADWAY","JERICHO","NY",11753,(516) 931-3626
"GOLD'S ACCESSORIES","159 DIVISION AVE","BROOKLYN,","NY",11211,(718) 218-6779
"GOOD WESTHAMPTON","72 JAGGER LANE","WESTHAMPTON","NY",11977,(631) 288-8112
"GOODHEARTS","642 MAIN STREET","READING","MA",01867,(781) 942-9700
"GOODIE 2 SHOES","81 S. KING STREET","JACKSON","WY",83001,(307) 733-0233
"GOODY TWO SHOES","2207 KALISTE SALOOM STE G","LAFAYETTE","LA",70508,(337) 706-8602
"GORGE DANCEWEAR","2600 MAY STREET","HOOD RIVER","OR","97031",(541) 386-6044
"GOT DANCE","2210 ANDREW ROAD","KETTERING","OH",45429,(937) 438-1111
"GOTTA DANCE","317 FEDERAL ROAD","BROOKFIELD","CT",06804,(203) 740-9905
"GRACE'S DANCEWEAR","3080 KANDY LANE","DECATUR","IL",62521,(217) 875-4010
"GRAND JETE","975 GRAND AVE","ST  PAUL","MN",55105,(651) 227-0331
"GRANNY'S GOT IT","724 WOLCOTT ROAD SUITE 8","WOLCOTT","CT",06716,(203) 879-0042
"GRASSHOPPER","285 NEWPORT CENTER DRIVE","NEWPORT BEACH","CA",92660,
"GREAT AMERICAN BALLROOM SHOES","1707 E. GUADALUPE","TEMPE","AZ",85283,(480) 396-0876
"GREAT NECK DANCE SHOP","770 MIDDLENECK ROAD","GREAT NECK","NY",11024,(516) 466-3515
"GREEN ONION, THE","274 SMITH STREET","BROOKLYN","NY",11231,(718) 246-2804
"GREENSTONES","454 COLUMBUS AVE","NEW YORK","NY",10024,(212) 580-4322
"GRIZZLY'S","628 S FIRST","LUFKIN","TX",75901,(936) 632-5924
"H.M. AUSTIN INC.","12 MAIN STREET","CHAMPAIGN","IL",61820,(217) 359-2231
"H20","4830 WHARF PARKWAY SUITE 102","ORANGE BEACH","AL",36561,(251) 980-6260
"HABIT FOOTWEAR","165 S BARRINGTON PLACE","LOS ANGELES","CA",90049,(310) 440-8837
"HALF PINT","450 FIRST STREET EAST","SONOMA","CA",95476,(707) 938-1722
"HARBRIDGE NIAGARA DANCE SUPLS","118-87TH STREET","NIAGARA FALLS","NY",14304,(716) 283-0389
"HARLEQUIN'S THEATRICAL SUPPLY","17 W GUTIERREZ STREET","SANTA BARBARA","CA",93101,(805) 963-1209
"HART'S SKATING & DANCEWEAR","5777 OLDE WADSWORTH #R600","ARVADA","CO",80002,(303) 456-5561
"HAUTE BABY","5350 W LOVERS LN","DALLAS","TX",75229,(214) 357-3068
"HEAD 2 TOE DANCE SUPPLY","110 MAIN ST.","YOUNG HARRIS","GA",30582,(706) 379-2346
"HEAD OVER HEELS","1656 LEGION STREET","TALLAHASSEE","FL",32303,(850) 224-5140
"HEAD TO TOE DW","200 WEST ARGONNE","KIRKWOOD","MO",63122,(314) 966-6258
"HEADS OF CLASS","916 RIVER AVENUE","LAKEWOOD","NJ",08701,(732) 730-9933
"HEART AND SOLE, LLC","9175 HIGHLAND ROAD","WHITE LAKE","MI",48386,(248) 698-2625
"HEATHCOTE BOOTERY","1086 WILMONT ROAD","SCARSDALE","NY",10583,(914) 472-3939
"HEATHER'S DANCEWEAR BOUTIQUE","8759 MATHIS AVE","MANASSAS","VA",20110,(703) 331-5964
"HEAVEN CHILDRENS WEAR","LINCOLN LANE AT OCEAN AVENUE","CARMEL","CA",93921,(831) 624-6550
"HEIDI SAYS SHOES","2426 FILLMORE STREET","SAN FRANCISCO","CA",94115,(415) 409-6850
"HIGGINS SHOES","428 SHORTER AVE","ROME","GA",30165,(706) 291-4596
"HIGH FASHION HOME","3100 TRAVIS STREET","HOUSTON","TX",77006,(713) 528-3838
"HILES TWO","7445  BROADWAY","KANSAS CITY","MO",64114,(816) 523-6677
"HILLARY KIDS","374 OCEAN AVENUE","LAGUNA BEACH","CA",92651,(949) 494-4862
"HILLARY RUSH","8222 WEST 3RD STREET","LOS ANGELES","CA",90048,(323) 852-0088
"HILLARY'S HEART","4095 STATE ROAD 7, U-1","LAKE WORTH","FL",33467,(561) 968-5471
"HIP HIP HOORAY","6805 SNIDER PLAZA","DALLAS","TX",75205,(214) 369-2788
"HIP JOINT, THE","110 SECOND ST. NE","CHARLOTTESVILLE","VA",22902,(434) 971-6888
"HIP-SQUEAK","8119 3RD AVENUE","BROOKLYN","NY",11209,(718) 745-3705
"HIRSH'S SHOES","2934 E. BROADWAY","TUCSON","AZ",85716,(520) 325-3110
"HITCHKICK","6529 N MESA PALM COURT","EL PASO","TX",79912,(915) 581-4848
"HOLBROOK COTTAGE","1253 PLEASANTVILLE ROAD","BRIARCLIFF MANOR","NY",10510,(914) 944-0734
"HOLLYWOOD DANCE ATTIRE","1054 CENTRAL AVE     #201","MIDDLETOWN","OH",45044,(513) 217-5010
"HONALEE","56 NORTH MAIN STREET","PITTSFORD","NY",14534,(585) 383-9190
"HONEYBEE, THE","2968 ATLANTA ROAD SOUTHEAST","SMYRNA","GA",30080,(770) 432-5120
"HOP SCOTCH","8061 VALENCIA STREET","APTOS","CA",95003,(831) 662-2748
"HOP SCOTCH SHOES","240 COUNTRY CLUB","BIRMINGHAM","AL",35213,(205) 834-8038
"HOSIERY PLUS","165 EAST KENNEDY BLVD","LAKEWOOD","NJ",08701,(888) 534-7587
"HOUNDSTOOTH","16566 SNAKE TRAIL","WASECA","MN",56903,(952) 440-2807
"HUMBUG","2707 WILLIAMS BLVD.","KENNER","LA","70062",(504) 469-3339
"IF THE SHOE FITS","322 WANAQUE AVE #3","POMPTON LAKES","NJ",07442,(973) 248-6059
"IMAGINATIONS INC.","3237 WACCAMAW BLVD.","MYRTLE BEACH","SC",29579,(843) 626-6639
"IN HER SHOES","855 EL CAMINO REAL #45","PALO ALTO","CA",94301,(650) 326-9644
"IN MOTION","2788 NE 187TH STREET","AVENTURA","FL",33180,(305) 936-0467
"IN MOTION APPAREL","44 SPRING ST.-SUITE 3","ADAMS","MA",01220,(413) 743-4455
"IN MOTION DANCEWEAR","1037 SOUTH HIGH STREET","HARRISONBURG","VA",22801,(540) 438-0166
"IN THE SPOTLIGHT"," 618 FOURTH STREET","CLOVIS","CA",93612,(559) 410-2700
"IN THE SPOTLIGHTS LLC","301 MT. HOPE AVE. SUITE 1073","ROCKAWAY","NJ",07866,(973) 361-7768
"INCREDIBLE ME!","301 NORTH HARRISON STREET","PRINCETON","NJ",08540,(609) 683-8907
"INSPIRATION DANCEWEAR","1843 RIDGE ROAD JUNCTION","WEBSTER","NY",14580,(585) 265-0387
"INTIMA","1027 SWARTHMORE AVE","PACIFIC PALISADES","CA",90272,
"ITS A DANCE THING, LLC","56 MAIN STREET","FLEMINGTON","NJ",08822,(908) 788-0603
"IT'S VINTAGE,  BABY!","234 PUBLIC SQUARE","FRANKLIN","TN",37064,(615) 465-2166
"ITSY BITSY","3414 EASTSIDE STREET","HOUSTON","TX",77098,(713) 523-3100
"JACK & STELA","101 NORTH COMMERCE","NATCHEZ","MS",39120,(601) 807-4690
"JACQUE'S CLOSET","1570 STARR DRIVE SUITE  #A","YUBA CITY","CA",95993,(530) 671-9105
"JANE & GEORGIE","15119 OYSTER SHELL DRIVE","MILTON","DE",19968,(302) 245-7182
"JAY'S SHOE BOX","280 ROUTE 9 NORTH","MORGANVILLE","NJ",07751,(732) 972-4700
"JAY'S SHOEBOX","20 EAST MOUNT PLEASANT AVE","LIVINGSTON","NJ",07039,(973) 992-0338
"JAZZY DANCER","880 AVERY BLVD","RIDGELAND","MS",39157,(601) 956-1595
"JEAN ANN RYAN PRODUCTION","308 SE 14TH STREET","FORT LAUDERDALE","FL",33316,(954) 523-6399
"JEANITAS ACTIONWEAR","6593 PEARL RD.","PARMA HEIGHTS","OH",44130,(440) 842-5410
"JELLYBEANS","2646 SOUTH GLENSTONE","SPRINGFIELD","MO",65804,(417) 889-2117
"JENNY JON FINE FOOTWEAR, CORP.","32 FASHION CENTER","PARAMUS","NJ",07652,(201) 612-9190
"JETE'","4312 HOLLAND ROAD SUITE 117","VIRGINIA BEACH","VA",23455,(757) 486-5383
"JITTERBUGS","572 BOSTON POST ROAD","MILFORD","CT",06460,(203) 882-0502
"JOAN SHEPP","1616 WALNUT STREET","PHILADEPHIA","PA",19103,(215) 735-2666
"JOY OF MOVEMENT","17 DANBURY ROAD","RIDGEFIELD","CT",06877,(203) 438-4555
"JOY'S DANCEWEAR","181-4 HUGHES ROAD","MADISON","AL",35758,(256) 461-0049
"JT'S DANCEWEAR","2224-4TH STREET","WHITE BEAR LAKE","MN",55110,(651) 653-9992
"JUDY'S DANCE SHOPPE","2762 NORTH GREEN VALLEY PKWY","HENDERSON","NV",89014,(702) 450-7900
"JUDY'S DANCE SHOPPE","4001 S. VIRGINIA ST.","RENO","NV",89502,(775) 825-1800
"JUICE, LLC","2241 SEGARS MILLPOND ROAD","HEARTSVILLE","SC",29550,(843) 332-4437
"JULEP","7161BISHOP ROAD STE G3","PLANO","TX",75024,(214) 460-9118
"JULIAN'S CLOTHES LINE","9825-31 SAN JOSE BLVD","JACKSONVILLE","FL",32257,(904) 880-0111
"JULIE R DANCEWEAR & ACC.","344 ROSENDALE STREET SUITE 1A","BEAVER DAM","WI",53916,(920) 887-3262
"JUMP & JIVE","4013 N. MITCHELL DRIVE","ARLINGTON HEIGHTS","IL",60004,(847) 564-9120
"JUMPING JELLYFISH","34 HUGUS ALLEY","PASADENA","CA",91103,(626) 578-1838
"JUNE'S DANCEWEAR","1921 EAST ABRAM","ARLINGTON","TX",76010,(817) 275-2303
"JUNIOR MODE SHOES & DANCE","5845 RIVERDALE ROAD","RIVERDALE","MD",20737,(301) 779-1146
"JUST FOR DANCE","425 HARBOR BLVD. #3B","BELMONT","CA",94002,(650) 593-2902
"JUST FOR FUN","6015 PACIFIC STREET SUITE 7","ROCKLIN","CA",95677,(916) 632-7197
"JUST FOR KIX/DANCE ETC","7842 COLLEGE ROAD","BAXTER","MN","56425     ",(800) 762-3347
"JUSTINE'S DANCE WEAR","594 WASHINGTON STREET","SOUTH EASTON","MA",02375,(508) 238-4969
"K & K DANCEWEAR","138 MAIN ST.","ONEIDA","NY",13421,(315) 363-5898
"KAMDYN'S KLOSET","124 WEST OKLAHOMA AVENUE","GUTHRIE","OK",73044,(405) 293-9718
"KARABEL DANCEWEAR","4621 VAN NUYS BLVD.","SHERMAN OAKS","CA",91403,(818) 385-1635
"KARABEL DANCEWEAR","3901 WEST MAGNOLIA BLVD","BURBANK","CA",91505,(818) 955-8480
"KAREN'S DANCE SUPPLY INC.","4047 MARINER BLVD","SPRING HILL","FL",34609,(352) 686-3566
"KAT'S MEOW","138 W. 3RD STREET","CHICO","CA",95926,(530) 899-8811
"KAY CLAY","813 EAST OGDEN AVE","NAPERVILLE","IL","60563",(630) 963-4252
"KAY CLAY INT.","245 N. CASS AVE.","WESTMONT","IL",60559,(630) 963-4252
"KC  DANCEWEAR","330 W. FELICITA AVE. C-3","ESCONDIDO","CA",92025,(760) 480-5674
"KEATING-CAPEZIO, INC.","10123 N. WOLFE RD.   SP #2130","CUPERTINO","CA",95014,(408) 996-0466
"KEEDO CLOTHES, INC.","12100 FN. MAY AVENUE","OKLAHOMA CITY","OK",73120,(405) 607-0887
"KEETONS KIDS","101 CLOVERHILL AVE","COLONIAL HEIGHTS","VA",23834,(804) 526-1994
"KEMBREL, INC","1219 LOCUST STREET","PHILADELPHIA","PA",19107,
"KEMP'S SHOE SALON & BOUTIQUE","3385 OCEAN DRIVE","VERO BEACH","FL",32963,(772) 231-2771
"KENZIE KIDS","200 LINDEN STREET","WELLSLEY","MA",02482,(781) 237-3666
"KICKLINE DANCE APPAREL","330 TENNANT AVE. SUITE 150","MORGAN HILL","CA",95037,(408) 779-2691
"KICKS","1014 OAK STREET","CONWAY","AR",72032,(501) 327-9666
"KICKS","801 CERRILLOS RD","SANTA FE","NM",87505,(505) 982-9277
"KICKS","TWO JEFFERSON AVE SE","GRAND RAPIDS","MI",49503,(616) 776-5966
"KICKS FOR KIDS","9635 S. INDIANAPOLIS","TULSA","OK",74137,(918) 671-3886
"KICKS-N-SPLITS","228 N. YORK ROAD","HATBORO","PA",19040,(215) 675-4409
"KID DREAMS","2069 WEST BULLARD AVENUE","FRESNO","CA",93711,(559) 439-4210
"KID O SHOES","2438 W. ANDERSON LANE","AUSTIN","TX",78757,(512) 467-7463
"KID SHOP, THE","116 SW 3RD","CORVALLIS","OR",97333,(541) 754-0185
"KIDDIE SHOE PLUS, INC","70 EAST RT 59","NANUET","NY",10954,(845) 623-8878
"KIDRAGEOUS","8009 VENTOR AVENUE","MARGATE","NJ",08402,(609) 487-0488
"KIDS CLOSET, THE","424 EAST WHEELING STREET D-4","WASHINGTON","PA",15301,
"KIDS N GLAMOUR","163 LEE AVENUE","BROOKLYN","NY",11211,(718) 388-2229
"KIDS SHOPPE AT TECHE DRUG","501 JEFFERSON STREET","LAFAYETTE","LA",70501,(337) 235-4578
"KIDS SHOPPE, THE","501 JEFFERSON","LAFAYETTE","LA",70502,(337) 235-4578
"KIDSBURGH CLOTHING STORES","4500 WEST VILLAGE PLAZA STE 1011","SMYRNA","GA",30080,(404) 819-1334
"KIDZ","10201 SW 69TH AVENUE","MIAMI","FL",33156,(305) 666-5900
"KIM-LEE DANCE & GYM WEAR, LLC","3529 HERITAGE TRACE PARKWAY SUITE 113","FORT WORTH","TX",76244,(817) 266-0809
"KINNEY DANCEWEAR","2434 E. 62ND ST.","INDIANAPOLIS","IN",46220,(317) 255-8111
"KINNEY DANCEWEAR","14765 HAZEL DELL CROSSING SUITE #800","NOBELSVILLE","IN","46062",(317) 581-1800
"KINNEY DANCEWEAR II","1850 SOUTH HURSTBOURNE PKWY #117","LOUISVILLE","KY","40220     ",(371) 252-2685
"KINNEY DANCEWEAR II","2434 E. 62ND STREET","INDIANAPOLIS","IN",46220,(502) 499-6262
"KINZIE & COMPANY","103 EAST MAIN STREET","ARDMORE","OK",73401,(580) 224-9644
"KITSON LA","115 S ROBERTSON BLVD","LOS ANGELES","CA",90048,(310) 859-2652
"KITTY'S CLOSET","15811  WEST DODGE ROAD","OMAHA","NE","68118",(402) 493-6525
"KITTY'S KLOSET","16880 PARKER PLAZA","OMAHA","NE",68118,(402) 491-3362
"KIWI BABY","1636 WASHINGTON STREET","BOSTON","MA",02118,(617) 247-2229
"KIWI DESIGN","119 7TH AVENUE","BROOKLYN","NY",11215,(718) 622-5551
"KIXX","1730 EAST WOODLAWN RD STE G","CHARLOTTE","NC",28209,(704) 676-1517
"KK'S","7706 WATERS AVENUE","SAVANNAH","GA",31406,(912) 691-0150
"KLASSY KIDS","948-A SUNSET BLVD","JESUP","GA",31545,(912) 427-8711
"KNIT WITS","128 SOUTH 17TH STREET","PHILADELPHIA","PA",19103,(609) 822-9442
"KOHLI DANCE INC","3129 DUBUQUE STREET NE","IOWA CITY","IA",52240,(319) 266-6822
"KOOKY KIDSTUFF","47 W 15TH STREET UNIT B","CHICAGO","IL",60605,(312) 527-0552
"KRAZY CUTE COUTURE","2469 EAST 11TH STREET","ODESSA","TX",79761,(432) 258-9983
"KRE-8-TIVE  MOVEMENTS","151 CR 485","WOODLAND","AL",36280,(256) 405-5072
"KRIK-IT","5 RIVER ROAD","WILTON","CT",06897,(203) 210-7222
"LA BELLE FASHION","117 EAST WISCONSIN AVENUE","ONCONOMOWOC","WI",53066,(262) 501-2852
"LA CROSSE DANCE CENTER","2716 COMMERCE ST","LA CROSSE","WI",54603,(608) 783-5155
"LA DANCEWEAR LLC","637 OHIO PIKE SUITE G","CINCINNATI","OH",45245,(513) 753-6611
"LA LUNA DANCEWEAR","33 BULLET HILL RD. SUITE 307","SOUTHBURY","CT",06488,(203) 262-1829
"LA STRADA DANCE","770-01 GRAND BLVD.","DEER PARK","NY",11729,(631) 242-1401
"LABELLA  FLORA","4571 CR-35","AUBURN","IN",46706,(260) 927-9951
"LABRIE FAMILY FOOTWEAR","375 PUTNAM PIKE","SMITHFIELD","RI",02917,(401) 232-2266
"LADS, INC.","901 SOUTH MAIN STREET","ABERDEEN","SD",57401,(605) 380-5674
"LADY BIRD","2556 MISSION STREET","SAN MARINO","CA",91108,(626) 437-4770
"LADY SLIPPER BOUTIQUE","4940 FRANCE AVENUE","EDINA","MN",55410,(952) 224-1900
"LADYBUGS AND LIZARDS","1389 E. 15TH STREET #128","EDMOND","OK",73013,(405) 348-2121
"LALA AND COMPANY","125 MAIN STREET","AMORY","MS",38821,(662) 256-9288
"LAMB'S EAR","1019 ST. MARY'S STREET","RALEIGH","NC",27605,(919) 828-4774
"LANEY'S PLACE","1830 29TH AVENUE SOUTH STE 135","HOMEWOOD","AL",35209,(205) 877-4005
"LARKIN DANCE STUDIO","3000 WHITE BEAR AVE","MAPLEWOOD","MN",55109,(651) 770-0764
"LAS VEGAS DANCE SHOPPE, THE","GREEN VALLEY PLAZA 2762 NORTH GREEN VALLEY PKWY","HENDERSON","NV","89014     ",(702) 450-7900
"LASHARS DANCE IMAGE","50 EAST 700 NORTH","LOGAN","UT",84321,(435) 752-4900
"LAURA'S STUDIO OF","2612 HELTON DRIVE","FLORENCE","AL",35630,(256) 760-0758
"LAUREN ALEXANDRA","322 W 63RD STREET","KANSAS CITY","MO",64113,(816) 822-2539
"LAUREN'S CLOSET","1420 PARK STREET","ALAMEDA","CA",94501,(510) 865-2219
"LEAF AND PETAL","439 CALIFORNIA AVENUE","PALO ALTO","CA",94306,(650) 329-8070
"LEAPIN LEOTARDS","7340 BLANCO ROAD  #120","SAN ANTONIO","TX","78216     ",(210) 342-1464
"LEAPIN LEOTARDS","5320 GULFTON  STE. 1","HOUSTON","TX",77081,(713) 432-0202
"LEBO'S, INC.","2321 CROWN CENTRE DRIVE","CHARLOTTE","NC",28227,(704) 321-5000
"LELA LU'S ACTIVEWEAR BTQ, INC","105 SOMERSET PLACE SUITE D","CARROLLTON","GA",30116,(770) 836-8201
"LEMON MERINGUE","1000 HIGHLAND COLONY PKWY #1007","RIDGELAND","MS",39157,(601) 853-2611
"LEMONADE","1038 LEXINGTON AVE","NEW YORK","NY",10021,(212) 585-4371
"LEOTARD INC., THE","2432 NORTH EAST MLK BLVD","PORTLAND","OR",97212,(503) 284-9244
"LEOTARD SHOP, THE","2922 MARKET ST.","PASCAGOULA","MS",39567,(228) 762-5845
"LEOTARDI","12120 SOUTHWEST 131ST AVENUE","MIAMI","FL",33186,(305) 254-1677
"LES GALS ACTIVEWEAR","2337 DISTRIBUTION CIRCLE","SILVER SPRING","MD",20910,(301) 608-3237
"LESTER HARRY'S","115  NEWBURY STREET","BOSTON","MA",02116,(617) 927-5400
"LESTERS","2411 CONEY ISLAND AVE","BROOKLYN","NY",11223,(718) 375-7337
"LET'S DANCE!","8200 NORTH MAIN STREET","BAYTOWN","TX",77520,(713) 816-0455
"LI-BO'S DANCE BARRE, INC.","1025 WEST MAIN","DOTHAN","AL",36301,(334) 794-8523
"LIL DUDES & DIVAS","1448 S. BRYANT AVENUE","EDMOND","OK",73034,(405) 330-8500
"LIL FOOTPRINTS","5109 13TH AVE","BROOKLYN","NY",11219,(718) 666-2511
"LIL' LAMB SHOP","167 SUITE Q JENNIFER ROAD","ANNAPOLIS","MD",21401,(410) 266-3303
"LIL SWEET PEAS","17020 WEST MAIN","CUT OFF","LA",70345,(985) 325-7327
"LILLE BOUTIQUE","1007 EAST BURNSIDE","PORTLAND","OR",97214,(503) 232-0333
"LILLYLU","424 EAST MAIN STE 102B","BOZEMAN","MT",59715,(406) 587-6364
"LIL'RASKALS","25 EAST 11400 SOUTH","SANDY","UT",84070,(801) 916-1510
"LILY AND CO.","95 WEST DELONEY","JACKSON","WY",83001,(307) 732-2211
"LINES FOR THE BODY LLC","2035 ESSEX ROAD","WILLISTON","VT",05495,(802) 878-8988
"LITTLE COTTAGE, THE","230 FRANKLIN ROAD 11-R","FRANKLIN","TN",37064,(615) 794-1405
"LITTLE DANCE SHOP","5626 NORTH 91ST STREET","MILWAUKEE","WI",53225,(414) 463-8530
"LITTLE ERIC","15 EAST ELM STREET","GREENWICH","CT",06830,(203) 622-1600
"LITTLE FEET","506 EMPIRE BLVD","BROOKLYN","NY",11225,(718) 778-0078
"LITTLE LAMBS & IVY","2816 DEVINE STREET","COLUMBIA","SC",29205,(803) 343-8787
"LITTLE LOUNGERS","811 EAST END AVENUE","LAKEWOOD","NJ",08701,(732) 942-6536
"LITTLE LOUNGERS-BORO PARK","4719-13TH AVENUE","BROOKLYN","NY",11219,(718) 972-6124
"LITTLE LOUNGERS-WILLIAMSBURG","169 LEE AVENUE","BROOKLYN","NY",11211,(718) 972-6124
"LITTLE MONSTERS","2445 NORTH FARWELL AVENUE","MILWAUKEE","WI",53211,(414) 659-1447
"LITTLE PEOPLE OUTFITTERS LLC","2216 43RD STREET","MERIDIAN","MS","39305",(601) 483-2623
"LITTLE PILLOW, THE","187 SOUTH 9TH STREET","BROOKLYN","NY",11211,(718) 782-1089
"LITTLE SHOES","359 COURT STREET","PLYMOUTH","MA",02360,(508) 747-2226
"LITTLE SHOP FOR BABIES","42 TERRY ROAD","SMITHTOWN","NY",11787,(631) 366-2229
"LITTLE SHOP, THE","12921 SW 1ST ROAD STE 117","NEWBERRY","FL",32669,(352) 505-0466
"LITTLE THREADS","2033 WEST ROSCOE","CHICAGO","IL",60618,(773) 327-9310
"LITTLE TOES","421 KINGSTON AVE","BROOKLYN","NY",11225,(718) 207-9408
"LIVE IT CLOTHING","4210 SOUTH POPLAR STREET","CASPER","WY","82601",(307) 315-1535
"LIVELY ARTS ACADEMY, INC","919A W. 55TH STREET","COUNTRYSIDE","IL",60525,(708) 482-4240
"LIZARDS & LACE CHILDREN'S BTQ","136 SOUTH MAIN STREET","GOODLETTSVILLE","TN",37072,(615) 859-5225
"LOLA BABY","100 N GLENDORA AVENUE, #100","GLENDORA","CA",91741,(626) 335-6060
"LOLLIPOP","1813 SOUTH CATALINA AVE","REDONDO BEACH","CA",90277,(310) 375-8787
"LOLLIPOP","10604 SOUTH LA CIENEGA","INGLEWOOD","CA",90304,(966) 504-6901
"LOLLIPOP GUILD, THE","374 POST ROAD EAST","WESTPORT","CT",06880,(203) 221-0123
"LOLLIPOSH","5985 ALTA LOMA COURT","GRANITE BAY","CA",95746,(916) 660-9530
"LONGWOOD DANCE SUPPLY","633 W. CYPRESS STREET","KENNETT SQUARE","PA",19348,(610) 444-3530
"LONNIE'S & ROBERT'S","3300 CHIMNEY ROCK RD SUITE 305","HOUSTON","TX",77056,(713) 838-7773
"LORELEI'S DANCEWEAR","125 EAST NORTH STREET SUITE 121","NEW CASTLE","PA",16101,(724) 657-5678
"LORETTA'S POINTE","3305 ORCHARD LAKE ROAD","KEEGO HARBOR","MI",48620,(248) 738-9496
"LORI'S DANCEWEAR","229 DOWLEN ROAD SUITE 2A","BEAUMONT","TX",77706,(409) 860-1984
"LORI'S FAMILY FOOTWEAR","786 TENNESSEE AVE SOUTH","PARSONS","TN",38363,(731) 847-7203
"LOST AND FOUND","6314 YUCCA STREET","HOLLYWOOD","CA",90028,(323) 856-0921
"LOTUS","1451 MAIN  STREET","SARASOTA","FL",34236,(941) 906-7080
"LOU BABS & MOOGS","95A MAIN STREET","PORT WASHINGTON","NY",11050,(516) 883-8585
"LOVE 2 DANCE","2031 EAST FAIRVIEW SUITE #102","MERIDIAN","ID",83642,(208) 866-4049
"LOVE SHOES","26 CHITTENDEN AVE","TUCKAHOE","NY",10707,(917) 664-2015
"LU LU BELLE OF NAPLES","1485 PINE RIDGE ROAD","NAPLES","FL",34109,(239) 598-1217
"LUCY & ETHEL'S INC.","15262 CANAL","CLINTON TWP","MI",48038,(586) 263-4350
"LULLABY BABY","488 5TH AVE","BROOKLYN","NY",11215,(718) 499-2742
"LULU BELLES","1901 MANHATTAN BLVD","HAREY","LA",70058,(504) 366-5369
"LYNCH'S, INC.","939 HOWARD ST.","DEARBORN","MI",48124,(313) 565-3425
"LYNN BASSETT DANCE FACTORY","2956 29TH STREET #19","GREELEY","CO",80631,(970) 506-9040
"M.A.ZING DANCEWEAR","3704 A WEST 23RD STREET","PANAMA CITY","FL","32405",(850) 640-0123
"MADI'S PLACE","110 A HILLCREST DRIVE","ANDALUSIA","AL",36420,(334) 222-4037
"MADISON","1028 OBERLIN ROAD #530","RALEIGH","NC",27605,(919) 754-1102
"MADISON & FRIENDS","43 EAST OAK STREET","CHICAGO","IL",60611,(312) 642-6403
"MADISON'S DANCEWEAR","161 LONG RD. SUITE 100","CHESTERFIELD","MO",63005,(636) 537-5456
"MADY & ME","25960 CLOVER COURT","LAWRENCE","KS",66044,(816) 810-6032
"MAGIC CITY COSTUMES","509 GRANT ROAD","EAST WENATCHEE","WA",98802,(509) 884-6919
"MAGIC CITY COSTUMES","103 EASTMONT AVE.","EAST WENATCHEE","WA","98802",(509) 884-6919
"MAGIC MAKERS COSTUME INC","545 4TH AVENUE","HUNTINGTON","WV",25701,(304) 525-5333
"MAGIC WARDROBE, THE","108 WEST WASHINGTON STREET","MIDDLEBURG","VA",20118,(540) 687-3363
"MAGIC WINDOWS","1186 MADISON AVE.","NEW YORK","NY",10028,(212) 289-0028
"MAIN STREET DANCE","111 S. FIRST STREET","PEOTONE","IL",60468,(708) 258-3656
"MAIN STREET DANCE","604 WEST THIRD ST.","THIBODAUX","LA",70301,(985) 446-7799
"MAINLY SHOES","248 WEST GARDEN STREET","PENSACOLA","FL",32501,(850) 438-7114
"MAKE BELIEVE","10950-45 SAN JOSE BLVD","JACKSONVILLE","FL","32223",(904) 880-2288
"MAKE BELIEVE COSTUMES & DANCEWEAR, INC.","1855 PARENTAL HOME ROAD","JACKSONVILLE","FL",32216,(904) 645-6337
"MANHATTAN DENIUM","920 MANHATTAN AVE","MANHATTAN BEACH","CA",90266,(310) 798-5326
"MARCIA'S ATTIC","32 NORTH DEAN STREET","ENGLEWOOD","NJ",07631,(201) 894-5701
"MARGO'S DANCETRENDS DANCE WEAR","1098-A  CITY ROAD","PERKINSTON","MS",39573,(601) 928-9999
"MARILYN SCHOOL OF DANCE","1007 SUPERIOR AVE","TOMAH","WI",54660,(608) 372-7488
"MARISSA COLLECTION","1167 3RD STREET SOUTH STE 207","NAPLES","FL",34102,(239) 687-1150
"MARK'S DANCEWEAR","6212 MERLE HAY ROAD, SUITE D","JOHNSTON","IA",50131,(515) 270-0744
"MARY ANNS DANCE AND MORE","56 COTTAGE STREET","EASTHAMPTON","MA","01027",(413) 282-0054
"MAUREEN'S DANCE SHOP","4016  PORTSMOUTH BLVD.","CHESAPEAKE","VA",23321,(757) 488-8424
"MAYSCO DANCE SUPPLIES","1225 MCKINNEY RD","BOISE","ID",83704,(208) 375-2727
"MAYSCO DANCE SUPPLIES","1225 MCKINNEY ROAD","BOISE","ID","83704",(208) 375-2727
"MEADOW","4300 MCCULLOUGH AVE","SAN ANTONIO","TX",78212,(210) 822-2764
"MEG'S SWIMWEAR","307 LASKIN ROAD","VIRGINIA BEACH","VA",23451,(757) 428-7945
"MEL AND ME","74 HILLSIDE ROAD","CRANSTON","RI",02820,(401) 943-4648
"MELBA'S","605 MCCOLL CIRCLE","MC ALLEN","TX",78501,(956) 686-1411
"MELBOURNE DANCEWEAR INC.","442 N. HARBOR CITY BLVD.","MELBOURNE","FL",32935,(321) 259-9922
"MELERO BOUTIQUE","700 W. E. STREET UNIT 514","SAN DIEGO","CA",92101,(915) 892-7411
"MENDOCINO BALLET","205 S. STATE STREET","UKIAH","CA",95482,(707) 463-2290
"MERINGUE","1393 N HIGHLAND AVENUE NE","ATLANTA","GA",30306,(404) 724-0960
"MICHAEL HAYES FOR KIDS","202 BELLEVUE AVENUE","NEWPORT","RI",02804,(401) 846-8390
"MICHELE'S DANCE SHOP","521 N.MAIN ST","LOGAN","UT","84321",(435) 753-6070
"MICHELES SHOES OF ROCHESTER","2807 SOUTH ROCHESTER ROAD","ROCHESTER","MI",48307,(248) 853-0020
"MIDSUMMER NIGHTS","443 MAIN STREET","CHATHAM","MA",02633,(508) 945-5562
"MILANI BOUTIQUE","65 EAST OAK STREET","CHICAGO","IL",60611,(312) 587-0570
"MILLERS","335 MAMARONECK AVE","MAMARONECK","NY",10543,(914) 698-5070
"MILLIE MOO'S BOUTIQUE","416 EAST SPRING STREET","COOKEVILLE","TN",38506,(931) 528-1667
"MILLIE'S DANCEWEAR","129 W. BADILLO STREET","COVINA","CA",91723,(626) 915-8949
"MINI ME","900 NORTH MICHIGAN","CHICAGO","IL",60611,(312) 988-4011
"MINT","1121-09 UPTOWN PARK BLVD","HOUSTON","TX",77056,(713) 977-4460
"MIRABELLA","605C METAIRIE ROAD #C","METAIRIE","LA",70005,(504) 828-3888
"MISHA'S DANCE","3316 W. BELL #C","PHOENIX","AZ",85053,(602) 863-2623
"MISS LIBBYS DANCE SHOP","155 ""W"" WESMARK BLVD.","SUMTER","SC",29150,(803) 469-8277
"MISTER DON SHOES & DANCE","84 FOLLY ROAD","CHARLESTON","SC",29409,(843) 766-5841
"MON PETIT","1761 46TH STREET","BROOKLYN","NY",11204,(718) 853-5410
"MONACO SHOES","1110 LEXINGTON AVENUE","NEW YORK","NY",10021,(212) 452-2010
"MONDE KIDS","319 EAST COMA, STE 142","HIDALGO","TX",78557,(956) 772-1758
"MONONA'S LA BOUTIQUE","6332 MONONA DR.","MADISON","WI",53716,(608) 221-4535
"MONTMARTRE","10 COLUMBUS CIRCLE","NEW YORK","NY",10019,(212) 823-9821
"MOORE'S DANCEWEAR","4068 REDONDO BEACH","TORRANCE","CA",90504,(310) 370-3018
"MORGAN IMPORTS","113 S GREGSON STREET","DURHAM","NC",27701,(919) 688-1150
"MORRIS COSTUMES","4300 MONROE ROAD","CHARLOTTE","NC",28205,(704) 333-4653
"MOTHER'S GIFT, A","6200 WEST PARKER ROAD STE 390","PLANO","TX",75093,(972) 981-3788
"MOTION UNLIMITED","218 SOUTH WABASH SUITE #270","CHICAGO","IL",60604,(312) 922-3330
"MOTIONS","628 SIXTH STREET","RAPID CITY","SD",57701,(605) 721-1620
"MOTIONS DANCE & FITNESS SHOPPE","3020 TOWNSHIP LINE RD","DREXEL HILL","PA",19026,(610) 789-2133
"MOVEMENTS","7711 ST. ANDREWS RD. SUITE D","IRMO","SC",29063,(803) 781-4116
"MOVERS & SHAKERS-DANCE FITNESS & LEISURE WEAR","497 CEDAR LANE","TEANECK","NJ",07666,(201) 907-0200
"MOVIN EASY","404- B  WEST 30TH","AUSTIN","TX",78705,(512) 474-0980
"MOVING CO. THE","644 LOVETTS","GRAND RAPIDS","MI",49506,(616) 459-0320
"MOVING COMPANY","3782 29TH ST.","KENTWOOD","MI",49512,(616) 459-0320
"MOXIE","51 CHARLES STREET","BOSTON","MA",02114,(617) 557-9991
"MS. DANCEWEAR INC.","1870 E. MAIN STREET","MOHEGAN LAKE","NY",10547,(914) 526-8380
"MUDPIE","2185 FILLMORE ST","SAN FRANCISCO","CA",94115,(415) 771-9262
"MULBERRY & ME","2019 W DIVISION STREET","CHICAGO","IL",60622,(773) 952-7551
"MULTNOMAH ATHLETIC CLUB","1849 S.W. SALMON STREET","PORTLAND","OR",97205,(503) 223-6251
"MURPHY DANCE STUDIO","1211 W. 2ND AVE","ALBANY","GA",31707,(229) 432-2444
"MUSE","860 S. LOS ANGELES ST LOBBY 110","LOS ANGELES","CA",90014,(213) 955-9282
"MUSIC GENERAL, INC.","416 S. 7TH STREET","BRAINERD","MN",56401,(218) 829-0076
"MY DANCE BAG","900 TOWNSHIP LANE","CHERRY HILL","NJ",08002,(856) 428-8844
"MY DANCE SHOP","74040 HWY 111 SUITE D","PALM DESERT","CA",92260,(760) 779-5901
"MY FORTE","3394 LONG BEACH","OCEANSIDE","NY",11572,(516) 766-9458
"MY KIDS KORNER","711 MONTGOMERY AVE","NARBETH","PA",19072,(610) 668-6404
"MY KONOS","493 GLEN EAGLE SQUARE","GLEN MILLS","PA",19342,(610) 558-8000
"MY LITTLE DIMPLE","201 SOUTH BEVERLY DRIVE","LOS ANGELES","CA",90212,(213) 624-3339
"MY LITTLE SUNSHINE","177 9TH AVE","NEW YORK","NY",10011,(212) 929-0887
"N' TENDED FOR KID'S, INC.","413 MT. CROSS RD. SUITE 201","DANVILLE","VA",24540,(434) 799-0757
"NANCY'S DANCE BOUTIQUE","1368 BEACH BLVD","JACKSONVILLE BEACH","FL",32250,(904) 446-0041
"NANOO","855 EL CAMINO REAL #34","PALO ALTO","CA",94301,(650) 321-6266
"NAPLES DANCE SUPPLY","6208 TRAIL BLVD","NAPLES","FL",34108,(239) 566-8546
"NCSA BOOK STORE","1533 S. MAIN","WINSTON -SALEM","NC",27127,(336) 770-3328
"NEED SUPPLY","3100 W. CARY STREET","RICHMOND","VA",23221,(804) 355-4383
"NELSON SCHOOL SUPPLY","419 N. 11TH ST.","BOISE","ID",83702,(208) 344-1122
"NEST","400 FAIRFAX STREET","DENVER","CO",80220,(720) 287-1372
"NEW DANCE, INC.","11 RYE RIDGE PLAZA","RYE BROOK","NY",10573,(914) 690-9300
"NEW MEXICO DANCEWEAR","8208 MENAUL N.E.","ALBUQUERQUE","NM",87110,(505) 292-2747
"NEW PROSPECTS","110 SOUTH PROSPECT","PARK RIDGE","IL",60068,(847) 823-2793
"NEW YORK DANCEWEAR COMPANY LTD","188-06 UNION TURNPIKE","FRESH MEADOWS","NY",11366,(718) 464-8019
"NEXT WORTH AVENUE","223 WORTH AVENUE","PALM BEACH","FL",33480,(561) 833-3075
"NICOLE HELMEID","1211 6TH AVE 17th FLOOR","NEW YORK","NY",10036,(212) 301-3961
"NOAH NE","5300 BEACH BLVD #15","BUENA PARK","CA",90621,(714) 521-1235
"NOVECENTO BOUTIQUE","8002 EAST COAST HIGHWAY","NEWPORT BEACH","CA",92657,(949) 715-1700
"NSTYL PERFORMANCE WEAR","3840 VINELAND RD. SUITE 100","ORLANDO","FL",32811,(407) 418-1275
"NURSERY RHYMES","5055 I-55","JACKSON","MS",39211,(601) 368-9997
"NURTURE","19 WEST LANCASTER AVE","ARDMORE","PA",19003,(610) 649-0424
"NUTMEG DANCE & THEATER SHOP","62 MAIN STREET","TORRINGTON","CT",06790,(860) 482-4413
"OAK","37 GREENPOINT AVENUE, 4th FL #B4A","BROOKLYN","NY",11222,(718) 782-0521
"OH BABY","3509 GALLERIA","EDINA","MN",55435,(952) 928-9119
"OH BABY","1408 CONEY ISLAND AVENUE","BROOKLYN","NY",11230,(718) 998-7373
"OH BABY","2805 BEE CAVES ROAD #414","AUSTIN","TX",78746,(866) 873-2229
"OH BABY.. CHILDRENS COLLECTION","8210 JEFFERSON HIGHWAY STE B","BATON ROUGE","LA",70809,(225) 930-0089
"OLD FORT SPECIALTY","3107C EAST WASHINGTON","FT. WAYNE","IN","46803",(260) 747-6161
"OLIVIA'S UNIQUES","528 SOUTH NEW HOPE ROAD","GASTONIA","NC",28054,(704) 867-7877
"ON CENTER DANCEWEAR","1521 COOPER ST","MISSOULA","MT",59802,(406) 542-0730
"ON CLOUD 9","1085 SEVEN LOCKS ROAD","POTOMAC","MD",20854,(301) 252-8900
"ON MY OWN","18060 BISCAYNE BLVD","AVENTURA","FL",33160,(305) 932-0032
"ON STAGE","2269 LOUISVILLE AVE","MONROE","LA",71201,(318) 388-2196
"ON STAGE BODYWEAR","8 GLEN ROAD","WEST LEBANON","NH",03784,(603) 298-9061
"ON STAGE DANCE SUPPLY","206 SOUTH MUSKOGEE","TAHLEQUAH","OK",74464,(918) 772-0200
"ON STAGE OF NEW YORK","197 MADISON AVE","NEW YORK","NY",10016,(212) 725-1174
"ON YOUR TOES","11401 N. 56TH ST. #8","TEMPLE TERRACE","FL",33617,(813) 989-1286
"ON YOUR TOES","474 LOWELL STREET","PEABODY","MA",01960,(978) 536-7077
"ON YOUR TOES DANCEWEAR","2090 HYLAN BLVD.","STATEN ISLAND","NY",10306,(718) 980-4880
"ONCE UPON A TIME","12 UNION STREET","CONCORD","NC",28025,(704) 723-4099
"ONCE UPON A TIME BOUTIQUE","503 SPINEY LANE STE 2","LONDON","KY",40741,(606) 330-0980
"ONE SMALL STEP","7919 JERICHO TPKE","WOODBURY","NY",11797,(516) 682-8133
"ONSTAGE DANCEWEAR","4168 SO. 1785 WEST","TAYLORSVILLE","UT",84129,(801) 968-3139
"OOH LA SHOPPE","1 GROVE STREET","ROSELYN HARBOR","NY",11575,(516) 801-2700
"OOPSIE DAISY LLC","3 BENTBROOK LANE","SANDY","UT",84092,(801) 674-0186
"OPENING NIGHT","3159 W. CENTRAL AVE.","TOLEDO","OH",43606,(419) 536-3202
"OPENING NIGHT","6371 SAWMILL ROAD","DUBLIN","OH",43017,(614) 764-0033
"ORDER MY STEPS DANCEWEAR","1848 WEST 95TH STREET","CHICAGO","IL",60643,(773) 238-4604
"OVER THE MOON","617 VALLEY ROAD","UPPER MONTCLAIR","NJ",07043,(973) 746-1728
"PACIFIC DANCEWEAR","4880 IRVINE BLVD #101","IRVINE","CA",92620,(714) 731-1108
"PALM VALLEY GYMNASTICS & DANCE, INC.","3204 WEST WILSON ROAD","HARLINGEN","TX",78552,(956) 423-6488
"PAMPO'S DANCE EMPORIUM","7350 JEFFERSON HWY SUITE 480","BATON ROUGE","LA",70806,(225) 927-0393
"PANSY'S","3905 WAYNE AVE","WICHITA FALLS","TX",76308,(940) 696-5513
"PAPRIKA","392 CENTRAL AVENUE","LAWRENCE","NY",11559,(718) 614-9039
"PARK CITY DANCE","6554 N. CREEKSIDE LANE","PARK CITY","UT",84098,(435) 640-2599
"PAS DE CHAT","107 E. MAIN ST.","NEW HOLLAND","PA",17557,(717) 354-2521
"PAS DE DEUX DANCE OUTFITTERS","5853 KANAN ROAD","AGOURA HILLS","CA",91301,(818) 707-1425
"PASHLEY","169 MAIN STREET","COLD SPRING HARBOR","NY",11724,(631) 367-8737
"PAT'S DANCEWEAR","105 SOUTH MAIN STREET","BOUNTIFUL","UT",84010,(801) 292-7287
"PAULA HANSON","1827 WESTCLIFF DRIVE","NEWPORT BEACH","CA",92660,(949) 515-3811
"PAULYNS DANCE STUDIO","300 NORFOLK AVE","NORFOLK","NE",68701,(402) 371-0718
"PEEK A BOO CHILDREN'S BOUTIQUE","133 NEW DORP LANE","STATEN ISLAND","NY",10306,(718) 668-9000
"PEEK...AREN'T YOU CURIOUS","425 SECOND STREET, SUITE 405","SAN FRANCISCO","CA",94107,(877) 887-7335
"PENNY-ROBIN DANCEWEAR","2600 W. MAIN ST.","LITTLETON","CO",80120,(303) 795-1873
"PERCHANCE KIDS","3512 NORTH SOUTHPORT AVE","CHICAGO","IL",60657,(773) 244-1300
"PERFORMANCE DANCEWEAR","617 QUEENS HIGHWAY","CARLSBAD","NM",88220,(575) 628-0200
"PERFORMANCE DANCEWEAR","1108 WEST PIERCE","CARLSBAD","NM","88220",(575) 628-0200
"PERFORMANCE INC.","2951 ARTHUR KILL ROAD","STATEN ISLAND","NY",10309,(718) 966-7666
"PERFORMANCE WEAR INC","1116 HORSHAM ROAD UNIT #3","AMBLER","PA",19002,(215) 643-6970
"PERFORMER'S CORNER","2606-C LINCOLN WAY","WHITE OAK","PA",15131,(412) 754-1007
"PERFORMING ARTS DANCE & SUPPLIES LLC","206 LAKE STREET","HAMBURG","NY",14075,(716) 649-5000
"PERRONE'S SHOE SERVICE","343 SOUTH MORRISON BLVD.","HAMMOND","LA",70403,(985) 345-5111
"PETIT AMI","15301 ANTIOCH STREET","PACIFIC PALISADE","CA",90272,(310) 459-0011
"PETIT FEET","270 CEDARBRIDGE AVE","LAKEWOOD","NJ",08701,(732) 534-4189
"PETIT GREEN BABY","1500 POLARIS PARKWAY #1214","COLUMBUS","OH",43240,(614) 840-0544
"PETTICOAT JUNCTION","14523 HWY 99 #1","LYNNWOOD","WA",98087,(425) 743-9513
"PETUNIA CHILDRENS WEAR","46-21 SKILLMAN AVE","SUNNYSIDE","NY",11104,(718) 729-3032
"PHYSIQUE BOUTIQUE DANCE & SPECIALTY FITNESS APPAREL","805 SOUTH  ATHERTON STREET #102","STATE  COLLEGE","PA","16801",(814) 234-3839
"PICCOLI PASSI","6401 JERICHO TPK","COMMACK","NY",11725,(631) 486-7722
"PICCOLINI","1440 SOUTH MAIN STREET STE 110","BLACKSBURG","VA",24060,
"PICNIC BROOKLYN","192 AMITY STREET","BROOKLYN","NY",11201,(516) 702-4078
"PIGGY TOES","2205 NORTH HALSTED","CHICAGO","IL",60614,(773) 281-5583
"PINK & BLUE AVENUE","4070 NELSON RD #900","LAKE CHARLES","LA",70605,(337) 477-6587
"PINK ON PALMER","1907 PALMER AVENUE","LARCHMONT","NY",10538,(914) 833-8955
"PINK SANDS RESORT","715 E. DILIDO DRIVE","MIAMI","FL",33139,(786) 318-7788
"PIROUETTE INC.","51 GREEN STREET","HUNTINGTON","NY",11743,(631) 271-1863
"PITTI BIMI","264 NORWOOD AVENUE","DEAL","NJ",07723,(732) 531-3676
"PLAID RABBIT","2164 BANDYWOOD DRIVE","NASHVILLE","TN",37215,(615) 298-2323
"PLEASE MOM","1022 WILLIS AVE","ALBERTSON","NY",11507,(516) 621-2450
"PLUM","130 EAST PROSPECT AVE","DANVILLE","CA",93526,
"POINTE DANCE BOUTIQUE","6900 WOODLAKE COMMONS LOOP","MIDLOTHIAN","VA",23112,(804) 639-4215
"POINTE SHOPPE, THE","1155 YELLOWSTONE, STE.E","POCATELLO","ID",83201,(208) 237-7300
"POINTES PLUS","306 W. MAIN ST.","COLLINSVILLE","IL",62234,(618) 345-7906
"POP FIZZ","1481  CANTON MARK ROAD STE E","JACKSON","MS",39211,(601) 977-1000
"POPPY","2098 BROADWAY","BOULDER","CO",80302,(303) 444-0927
"POPPY AND STELLA","728 S. BROADWAY","BALTIMORE","MD",21231,(410) 522-1970
"POPPY STORE","225 26TH STREET STE 48D","SANTA MONICA","CA",90402,(310) 260-0002
"PORTOBELLO ROAD","47 BOYLSTON STREET","CHESTNUT HILL","MA",02467,(617) 264-2020
"POSH","809 NW 11TH AVE","PORTLAND","OR",97209,(503) 478-7674
"POSH BABY CO","5955 PHELAN BLVD","BEAUMONT","TX",77706,(409) 225-5554
"POSH LITTLES","5019 S. WESTERN AVE, STE 180","SIOUX FALLS","SD",57108,(605) 271-2164
"POSH PETUNIA, THE","6356 ORIOLE DRIVE","DALLAS","TX",75209,(972) 403-1540
"PRECIOUS CARGO","2 WEST NORTHFIELD ROAD","LIVINGSTON","NJ",07039,(973) 994-4040
"PREMIER DANCE GEAR","7185 COLUMBIA GATEWAY DRIVE SUITE K","COLUMBIA","MD",21046,(410) 418-8804
"PREMIER DANCEWEAR","1225 OAKLEY AVE","BURLEY","ID","83318     ",(208) 678-3970
"PREMIER DANCEWEAR","2400 CATON FARM RD UNIT Q","CREST HILL","IL",60435,(815) 439-5567
"PRESCOTTS DANCEWEAR","252-A PLANTATION DRIVE","LAKE JACKSON","TX",77566,(979) 297-3009
"PRETTY PLEASE","500 GRAND BLVD STE 106K","SANDESTIN","FL",32550,(850) 650-5988
"PRIMA BODYWEAR","123 N. COLLEGE AVE OPERA GALLERIA, STE112","FORT COLLINS","CO",80524,(970) 484-2623
"PRIMA DANCE","4034 ORLANDO DRIVE","SANFORD","FL",32773,(407) 435-5847
"PRIMA DANCE & FORMAL BOUTIQUE","112 SOUTH MAIN STREET","SUMMERVILLE","SC",29483,(843) 832-6363
"PRIMA DANCE SHOP","20 ACOSTA STREET","STAMFORD","CT",06902,(203) 964-1211
"PRIMA DANCEWEAR","9705 FORT MEADE ROAD","LAUREL","MD","20707",(301) 490-6616
"PRIMA DANCEWEAR","5885 SANTA TERESA BLVD #111","SAN JOSE","CA",95123,(408) 227-2200
"PRIMADONNA'S","1825 N. MCFARLAND BLVD SUITE C","TUSCALOOSA","AL",35406,(205) 750-0815
"PRINCESS CIEL GROUP ADULTS","350 CENTER AVE","WESTWOOD","NJ",07675,(201) 664-4389
"PRONTO TRADES, LLC","3371 KNICKERBOCKER RD. #82","SAN ANGELO","TX",76904,(325) 450-1537
"PUMKIN AND BEAN","55 NORTH DEAN STREET","ENGLEWOOD","NJ",07631,(201) 503-9001
"PUMPKIN","333 BLEEKER STREET","NEW YORK","NY",10014,(212) 352-0109
"PUMPKINHEADS","11640 WEST SAN VICENTE BLVD #109","LOS ANGELES","CA",90049,(310) 207-6760
"PURPLE GOOSE","2005 MT VERNON AVENUE","ALEXANDRIA","VA",22301,(301) 300-6172
"PURPLE MANGO","2410 RICE BLVD","HOUSTON","TX",77005,(713) 529-9188
"PUT'N ON THE GLITZ","3701 WASHINGTON BLVD.","OGDEN","UT",84403,(801) 394-5489
"RAPUNZEL'S CLOSET","151 E 85TH STREET STE 12C","NEW YORK","NY",10028,(212) 633-2318
"RAZZLE DAZZLE DANCE WEAR","MAYCO SHOPPING CENTER 3440 WESTERN ST.","AMARILLO","TX",79109,(806) 351-0432
"RED BALLOON","1801 WESTCLIFF DRIVE","NEWPORT BEACH","CA",92660,(949) 631-3500
"RED SHOE, THE","810 NW 3RD STREET","BENTONVILLE","AR",72712,(479) 254-0334
"RED SHOES, THE","1018 MISSION ST. #1","S  PASADENA","CA",91030,(626) 799-8615
"RED WOLF","15 SPRING STREET","SARATOGA SPRINGS","NY",12866,
"REED'S","129-131 W MAIN STREET","TUPELO","MS",38804,(662) 842-6453
"REITER'S","450 MAIN STREET","BILLINGS","MT","59105",(406) 252-9341
"RENE","927 MADISON AVE","NEW YORK","NY",10021,(212) 879-8889
"REPEAT PERFORMANCE","5050 B NICHOLSON LANE","ROCKVILLE","MD",20852,(301) 881-0800
"REPERTOIRE DANCE SHOP","65 GARTH ROAD","SCARSDALE","NY",10583,(914) 722-2440
"REVOLVE CLOTHING.COM","16800 EDWARDS ROAD","CERRITOS","CA",90703,(888) 442-5830
"RICHLAND ACADEMY","75 NORTH WALNUT STREET","MANSFIELD","OH",44902,(419) 522-8224
"RIK RAK SALON","1428 BRICKELL AVE","MIAMI","FL",33131,(305) 371-7324
"RILEY'S","452 COURTHOUSE ROAD STE D","GULFPORT","MS",39507,(228) 594-0707
"ROBERT THOMAS ENTERPRISE INC","319 SOUTH 17TH STREET","AMES","IA","50010",(515) 292-4602
"ROBIN'S NEST","212 MAIN STREET WEST","HARTSELLE","AL",35640,(256) 773-2284
"ROCKY MOUNTAIN KIDS SHOES","2525 ARAPAHOE AVENUE #H12a","BOULDER","CO",80302,(303) 447-2267
"ROGAN'S SHOES, INC.","1750 OHIO STREET","RACINE","WI",53405,(262) 637-3613
"ROOM TO DREAM","12100-P N. MAY","OKLAHOMA CITY","OK",73120,(405) 858-2268
"ROSIN BOX, THE","2050 SANSOM ST.","PHILADELPHIA","PA",19103,(215) 569-9134
"ROUGE","51 WHITHERSPOON STREET","PRINCETON","NJ",08542,(609) 921-0280
"ROYAL FAMILY SHOES","6750 ROUTE 9 SOUTH","HOWELL","NJ",07731,(732) 961-2222
"RUBY'S GARDEN","5095 TELEGRAPH AVE STE C","OAKLAND","CA",94609,(510) 595-5325
"RUFFLES 'N BRITCHES","2561 CITIPLACE CT. #425","BATON ROUGE","LA",70808,(225) 924-0670
"RUTHERFORD PRODUCTS","181 FRISBEE HILL ROAD","HILTON","NY","14468",(585) 392-7707
"S BOUTIQUE","10830 SE 29TH","OKLAHOMA CITY","OK",73130,(405) 733-9797
"SADIE'S","189 MASSACHUETTS AVENUE","ARLINGTON","MA",02474,(781) 646-2515
"SALLE DE DANSE","1836 FLATBUSH AVE","BROOKLYN","NY",11210,(718) 649-2117
"SALUTATIONS","900 GRANITE DRIVE","PASADENA","CA",91101,(626) 577-7460
"SAN FRANCISCO DANCEWEAR","659 MISSION STREET","SAN FRANCISCO","CA",94105,(415) 882-7087
"SAN FRANCISCO DANCEWEAR","5933 COLLEGE AVE","OAKLAND","CA","94618",(510) 655-1306
"SANDBOX KIDS","118 TOWN CENTER EAST #D44","SANTA MARIA","CA",93454,(805) 922-9195
"SANDRA & ROY'S BOUTIQUE","199 NEW ROAD SUITE 26","LINWOOD","NJ",08221,(609) 926-7697
"SANDY'S DANCEWEAR TOO","3115 WEST PARKER RD. SUITE 190","PLANO","TX",75023,(214) 473-6600
"SANDY'S SHOES","2211 GUS THOMASSON","DALLAS","TX",75228,(214) 321-1764
"SARA SUE'S DANCEWEAR","1445 EAST MAIN","CUSHING","OK",74023,(918) 225-1344
"SARATOGA DANCE ETC","55 CHURCH STREET","SARATOGA SPRINGS","NY",12866,(518) 584-8690
"SARIT SHOES","4806 13TH AVENUE","BROOKLYN","NY",11219,(718) 437-2748
"SASSANOVA BALTIMORE","805 ALICEANNA STREET","BALTIMORE","MD",21202,(410) 244-1114
"SASSANOVA BETHESDA","7134 BETHESDA LANE","BETHESDA","MD",20814,(301) 654-7403
"SASSANOVA GEORGETOWN","1641 WISCONSIN AVENUE NW","WASHINGTON","DC",20007,(202) 471-4400
"SATURDAYS CHILD","2529 MISSION STREET","SAN MARINO","CA",91108,(626) 441-8888
"SAVVY INC.","1803 E AUGUSTA STREET","GREENVILLE","SC",29605,(864) 370-9898
"SCHLESINGER","774 BEDFORD","BROOKLYN","NY",11205,(718) 797-4200
"SCOTT JONES DANCE BOUTIQUE","6565 FT. CAROLINE RD.","JACKSONVILLE","FL",32211,(904) 744-7055
"SCOTT'S SPORTING GOODS","1407 20TH ST.","VERO BEACH","FL",32960,(772) 778-0661
"SECOND STORY DANCE BOUTIQUE","307 B EAST REDWOOD AVE","FORT BRAGG","CA",95437,(707) 964-2731
"SECRET GARDEN","180  BON AIR SHOPPING CENTER","GREENBRAE","CA",94904,(415) 464-9294
"SEQUINS & SWEATS","750 HARRY L. DRIVE","JOHNSON CITY","NY",13790,(607) 343-4653
"SERENITY BOUTIQUE","736 WASHINGTON AVE","HOBOKEN","NJ",07030,(201) 706-8082
"SHAPE SHOP","8214 GLADES ROAD","BOCA RATON","FL",33434,(561) 482-7009
"SHAPES DANCE & AEROBIC WEAR","5482 CHAMBLEE DUNWOODY ROAD","DUNWOODY","GA",30338,(770) 396-1078
"SHARI RARICK DANCEWEAR BOUTIQU","1400 W. COLUMBIA","BATTLE CREEK","MI",49015,(269) 963-0669
"SHE","110 CROSSROAD BLVD","CARMEL","CA",93923,(831) 626-4686
"SHE BOUTIQUE","483 CENTRAL AVENUE","HIGHLAND PARK","IL",60035,(773) 880-8061
"SHE SHE","73199 EL PASEO #H, STE C-1308","PALM DESERT","CA",92260,(760) 779-0417
"SHE SHE SHOES","130 N SANTA CRUZ","LOS GATOS","CA",95030,(408) 354-3355
"SHOE BIZ","1422 HAIGHT STREET","SAN FRANCISCO","CA",94117,(415) 861-0313
"SHOE CHOO TRAIN, THE","212 WEST BENDER","HOBBS","NM",88240,(575) 392-8993
"SHOE CLUB","2606 BROADWAY","NEW YORK","NY",10025,(212) 222-8818
"SHOE GALLERY","401 CLIFTON AVENUE","LAKEWOOD","NJ",08701,(732) 901-7722
"SHOE GARDEN","157 LEE AVENUE #A","BROOKLYN","NY",11211,(718) 599-4769
"SHOE METRO","8960 CARROLL WAY STE 200","SAN DIEGO","CA",92121,(858) 547-7545
"SHOE PARLOUR","851 7TH AVENUE","NEW YORK","NY",10019,(212) 582-0039
"SHOE SHOP & DANCE","4833 WEST 119TH ST,","OVERLAND PARK","KS",66209,(913) 469-1986
"SHOE ZOO","3146 HENNEPIN AVE S","MINNEAPOLIS","MN",55408,(612) 823-3988
"SHOE-INN","48 NORTH DEAN STREET","ENGLEWOOD","NJ",07651,(201) 568-2900
"SHOES AT PARK","5723 18TH AVENUE","BROOKLYN","NY",11204,(718) 236-3626
"SHOES N' MORE","168 IRVING AVENUE, SUITE 100","PORT CHESTER","NY",10573,(914) 937-5046
"SHOES UNLIMITED","4236 TELEGRAPH RD.","MEHLVILLE","MO",63129,(314) 892-3200
"SHOETIQUE","605 EAST COUNTY LINE ROAD","LAKEWOOD,","NJ",08701,(732) 961-1425
"SHOP AT VCB, THE","21 CARMICHAEL ST.","ESSEX","VT","05451     ",(802) 878-2941
"SHOP THE FAR OUT","4720 CENTER BLVD #2511","LONG ISLAND CITY","NY",11109,(631) 836-4253
"SHORE","465 RINGLING BLVD","SARASOTA","FL",34236,(941) 388-3535
"SHOW HOPPERS DANCE BOUTIQUE","9 PLEASANT STREET EXT","CONCORD","NH",03301,(603) 229-0205
"SHOWBIZ","10625 S. WESTERN","OKLAHOMA CITY","OK","73170     ",(405) 691-6707
"SHOWBIZ DANCEWEAR BOUTIQUE","4427 N.W. 63RD ST.","OKLAHOMA CITY","OK",73116,(405) 840-4406
"SHOWTIME DANCE & ACTIVEWEAR","746 SILVER BLUFF ROAD","AIKEN","SC",29803,(803) 644-9113
"SHREVEPORT GYMNASTIC SUPPLY","4727 LINE AVE","SHREVEPORT","LA","71106",(318) 869-1206
"SIENNA BROWN / LOOMWORKS","936 AVOCADO","NEWPORT BEACH","CA",92660,(949) 706-1071
"SIMI'S SOCKS & SHELLS","357 CEDARBRIDGE AVENUE","LAKEWOOD","NJ",08701,(732) 367-7625
"SIMPLY SOLES","3222 M STREET NW STE W23","WASHINGTON","DC",20007,(202) 232-0072
"SISTERS  DANCEWEAR","429 C ROUTE 25 A","SAINT JAMES","NY",11780,(631) 862-1306
"SKAGIT VALLEY DANCE SHOP","1522 JAYWAY","MT VERNON","WA",98273,(360) 424-6677
"SKANEATELES","2 WEST GENESEE STREET","SKANEATELES","NY",13152,(315) 685-1133
"SKATE SKINS/INFINITY","427 PARADISE ROAD","SWAMPSCOTT","MA",01907,(781) 599-8829
"SKIN TITE DANCEWEAR","26845 OAK AVE #3","SANTA CLARITA","CA",91351,(661) 298-5889
"SKYE BLUE & CHARLOTTE","799 RIVER ROAD","FAIRHAVEN","NJ",07701,(732) 345-8097
"SMALL CHANGE","1196 LEXINGTON AVE","NEW YORK","NY",10028,(212) 772-6455
"SMALL JOYS","11 COURT STREET","BEDFORD VILLAGE","NY",10506,
"SMOOCHIE BABY","110 BERRY STREET","BROOKLYN","NY",11211,(718) 384-3340
"SNAP KIDS","240 COUNTRY CLUB PARK","BIRMINGHAM","AL",35213,(205) 834-8038
"SNAPDRAGON BOUTIQUE","725 BAGLEY AVENUE SE","GRAND RAPIDS","MI",49506,(616) 855-1198
"SNEAKEROLOGY","420 WHEATLEY PLAZA","GREENVALE","NY",11548,(516) 484-0208
"SO CHILDISH","1947 30TH STREET","SAN DIEGO","CA",92102,(619) 238-0800
"SOCK BASKET","182 EAST MAIN STREET","SPARTANBURG","SC","29306",(864) 585-0195
"SOCK BASKET, THE","2433 LAURENS RD.","GREENVILLE","SC",29607,(864) 676-0635
"SOCK EXCHANGE","4513 13TH AVENUE","BROOKLYN","NY",11219,(718) 633-1371
"SOCK SHOPPE","27 ORCHARD STREET","MONSEY","NY",10952,(845) 356-2269
"SOEL BOUTIQUE","4801 N UNIVERSITY AVENUE STE 410","PROVO","UT",84604,(801) 426-9644
"SOHO BOUTIQUE","869 HAVENWOOD COURT","CRESCENT SPRINGS","KY",41017,(513) 321-6930
"SOLE","201 EAST BROAD STREET","WESTFIELD","NJ",07090,(908) 654-7800
"SOLEMATES","212 CORTE MADERA TOWN COURT","CORTE MADERA","CA",94925,(415) 924-0131
"SOLEUS","862 BUTTE STREET","REDDING","CA",96001,(530) 242-1234
"SOPHIE & SAM","3700 BLUEBIRD LANE","MIDLAND","TX",79707,(432) 699-5437
"SOULA LLC","203 WARREN STREET STE B","BROOKLYN","NY",11201,(718) 834-8423
"SOUTHEAST DANCE SHOP","5910-136 DURALEIGH ROAD","RALEIGH","NC",27612,(919) 787-0011
"SPACE KIDDETS","26 EAST 22ND STREET","NEW YORK","NY",10010,(212) 420-9878
"SPECIALTY DANCEWEAR","5775 JURUPA STREET","ONTARIO","CA","91761",(909) 730-2425
"SPELLS","3021 MEMORIAL PARKWAY SOUTH","HUNTSVILLE","AL","35801     ",(256) 881-4292
"SPELL'S","330 FRANKLIN ROAD SUITE 270-B","BRENTWOOD","TN","37027     ",(615) 376-4647
"SPELLS DANCE","2210 CRESTMOOR ROAD","NASHVILLE","TN",37215,(615) 292-4387
"SPORT HAUS, THE","19505 7TH AVE. N.E.","POULSBO","WA",98370,(360) 697-2311
"SPORTS 4 GIRLS, INC.","4045 S. DALE MABRY HWY","TAMPA","FL",33611,(813) 876-4475
"SPOTLIGHT DANCEWEAR","2325 SOUTH STEMMONS FRWY SUITE 502-B","LEWISVILLE","TX",75067,(972) 459-5556
"SPRING CREEK DANCEWEAR","419 EAST STUART","FT  COLLINS","CO",80525,(970) 482-3118
"STACY'S DANCE FACTORY","3 TOWANDA SERVICE ROAD","BLOOMINGTON","IL",61701,(309) 662-8840
"STAGE CENTER","477 MAIN STREET","MONROE","CT",06468,(203) 268-3161
"STAGE CENTER","908 N. MAIN","AKRON","OH",44310,(330) 535-7816
"STAGE PRESENTS","180 CARTHAGE ROAD","CARTHAGE","NC",28327,(910) 725-1306
"STAGE PRESENTS","227 W. PENNSYLVANIA AVE.","SOUTHERN PINES","NC","28387",(910) 725-1306
"STAGE RIGHT DANCEWEAR","3660 PACIFIC AVE S.E. SUITE B","OLYMPIA","WA",98501,(360) 438-9546
"STAGE TWO","308 LINCOLN CENTRE","STOCKTON","CA",95207,(209) 957-8463
"STANDING OVATION  PERFORMANCE APPAREL","725- D COLISEUM BLVD","FORT WAYNE","IN",46808,(260) 483-1633
"STAR BEAUTY & DANCE SUPPLY","502 WEST CALTON ROAD SUITE #304","LAREDO","TX",78041,(956) 725-7827
"STAR COSTUME","3230 S VALLEY VIEW BLVD SUITE 110","LAS VEGAS","NV",89102,(702) 731-5014
"STAR DANCER","474 EAST 49TH STREET","HIALEAH","FL",33013,(305) 769-0274
"STAR DANCEWEAR","9021 W. 151ST ST.","ORLAND PARK","IL",60462,(708) 873-0220
"STAR MAKER DESIGNS","1416 STATE ST.","BAY CITY","MI",48706,(989) 684-7827
"STAR SPANGLED CAROUSEL","462 MAIN STREET","ARMONK","NY",10504,(914) 273-9702
"STARBOUND DANCEWEAR ","4120 OLD TOWN ROAD","HUNTINGTOWN","MD","20639",(410) 257-6078
"STARDUST PERFORMANCEWEAR","1418 TOWN CENTER SUITE A20","BRUNSWICK","OH","44212",(330) 220-7827
"STARMAKER DISCOUNT DANCEWEAR","122 S. FRIENDSWOOD DRIVE","FRIENDSWOOD","TX",77546,(281) 992-2166
"STAYIN'ALIVE DANCEWEAR SHOP","715 MILL STREET","BRIDGEVILLE","PA",15017,(412) 257-6000
"STELLA","96 CHURCH STREET","BURLINGTON","VT",05401,(802) 864-2800
"STEP ' N STRETCH , INC","12957 RIDGEDALE DRIVE","MINNETONKA","MN","55305",(952) 591-1040
"STEP AHEAD","206 WEST NORTH ST.","LEESVILLE","LA",71446,(337) 238-9821
"STEP BY STEP","1001-A SOUTH CASHUA DRIVE","FLORENCE","SC",29501,(843) 662-3499
"STEP IN TIME","1305 BOARDMAN-CANFIELD ROAD","BOARDMAN","OH",44512,(330) 758-8468
"STEP IN TIME","25 ROUTE 101","EAST PATCHOGUE","NY",11772,(631) 289-7742
"STEP N STEP","626 KINGS HWY","BROOKLYN","NY",11223,(718) 375-2700
"STEPHANIE'S LITTLE LUXURIES","7040 E. INDIAN SCHOOL","SCOTTSDALE","AZ",85251,(602) 508-0848
"STEP'N STRETCH","7455 CURRELL BLVD #110","WOODBURY","MN","55125",(952) 892-0083
"STEP'N STRETCH INC.","13903 ALDRICH AVE","BURNSVILLE","MN","55337",(952) 882-8300
"STEP-N-UP/ RLMC, INC.","2615 S. KING STREET, SUITE 200","HONOLULU","HI",96826,(808) 941-7837
"STEPS OF FAITH DANCE CENTER","5698 SOUTH STREET HIGHWAY 19","ELKHART","TX",75839,(903) 723-0827
"STEVEN ALLEN","158 FRANKLIN STREET","NEW YORK","NY",10013,(212) 343-0352
"STORE AT TOWAMENCIN, THE","1758 ALLENTOWN ROAD","LANSDALE","PA",19446,(215) 855-5030
"STREET PROPHECY","1316 SARTORI AVENUE","TORRANCE","CA",90501,(310) 787-9565
"STRICTLY WORKOUT WEAR","28780 FRONT STREET UNIT B4","TEMECULA","CA",92590,(951) 693-0255
"STRICTLY WORKOUT WEAR ","401 WEST GRAND","ESCONDIDO","CA","92025",(760) 741-8355
"STUDIO ""5"" DANCEWEAR","146 MAIN STREET","WESTFIELD","MA",01085,(413) 562-0300
"STUDIO BOUTIQUE","28200 HWY 189 SUITE #S130","LAKE ARROWHEAD","CA","92352     ",(909) 336-9206
"STUDIO MODA","8619 NW 68TH STREET","MIAMI","FL",33166,(507) 269-8528
"STUDIO, THE","29350  NORTHWESTERN HIGHWAY","SOUTHFIELD","MI",48034,(248) 223-5998
"STYLE LEADER","3864 TYLER STREET","RIVERSIDE","CA",92503,(951) 687-4071
"STYLES IN MOTION","3500 CANYON RIDGE ARC","LAS CRUCES","NM",88011,(575) 521-3855
"STYLIZED APPAREL, LLC","1743 N GRAND VIEW DR","FARMINGTON","UT",84025,(801) 628-8889
"SUBURBAN SHOP, THE","5 WAVERLY PLACE","MADISON","NJ",07940,(973) 377-2115
"SUGAR & SPICE DANCEWEAR","730 S. MADISON STREET","WHITEVILLE","NC",28472,(910) 642-5737
"SUGAR BABIES","28465 OLD TOWN FRONT ST, #104","TEMECULA","CA",92590,(951) 699-2229
"SUGAR TOOLS","23 BAYVIEW STREET","CAMDEN","ME",04843,(917) 539-4773
"SUGARPLUM FAIRY, THE","8 EAST GRADY STREET","STATESBORO","GA",30458,(912) 764-7674
"SULLIVAN DANCE & BODYWEAR, INC","2020 CHERRY RD.","ROCK HILL","SC",29732,(803) 366-1760
"SUMMIT DANCEWEAR","2800 FERNBROOK LANE NORTH","PLYMOUTH","MN",55447,(763) 553-1870
"SUNBEAMS","10922 BELMONT DRIVE","SONORA","CA",95370,
"SUNCOAST ACADEMY OF DANCE","2330 CURLEW ROAD","PALM HARBOR","FL",34683,(727) 786-8111
"SUNNYSIDE DEPARTMENT STORE","3554 E. BUTLER AVE.","FRESNO","CA",93702,(559) 237-1505
"SUNSET KIDS","8671 W. SUNSET BLVD.","WEST HOLLYWOOD","CA",90069,(310) 659-4411
"SWEET CREAM PARLOR","1942 W 74TH AVENUE","PHILADELPHIA","PA",19138,(267) 261-1290
"SWEET DREAMS","1888 MAIN STREET","MADISON","MS",39110,(601) 856-2080
"SWEET PEA","2690 VIA DE LA VALLE","DEL MAR","CA",92014,(858) 481-0683
"SWEETIE FACE KIDS","3499 BLACK HAWK PLAZA CIRCLE","DANVILLE","CA",94506,(925) 648-0111
"SYLVESTER & CO","103 MAIN STREET","SAG HARBOR","NY",11963,(631) 725-5012
"TAH DAH, LTD.","515 E. MAIN STREET","STOUGHTON","WI",53589,(608) 873-0717
"TAKE A BOW","101 E CHESTNUT","ROGERS","AR",72756,(479) 936-8011
"TALENT FORUM","450 PETERSON","LIBERTYVILLE","IL",60048,(847) 816-1711
"TALULAH JONES","1122 EAST 17TH AVE","DENVER","CO",80218,(303) 832-1230
"TAMMY'S","101 MARLBORO AVE #59","EASTON","MD",21601,(410) 822-8090
"TANI","2020 BROADWAY","NEW YORK","NY",10023,(212) 721-3651
"TANI","131 W 72ND STREET","NEW YORK","NY",10023,(212) 721-3651
"TANYA'S /DANCE PLUS","1307 PARK AVE. SUITE 10","S. WILLIAMSPORT","PA",17701,(570) 327-6178
"TAPOLINO","842 NW WALL #2","BEND","OR",97701,(541) 318-5663
"T'DANCE SCHOOL OF PERFORMING ARTS","5345 W. VALLEY RD.","HASTINGS","NE",68901,(402) 463-2864
"TEAM LEADER","2901 SUMMIT AVE, SUITE 300","PLANO","TX",75074,(214) 340-2288
"TEATROCENTRO","1203 AVE AMERICO MIRANDA REPARTO METROPOLITANO","SAN JUAN","PR",00921,(787) 707-0826
"TEATROCENTRO","SAN PATRICIO PLAZA","GUAYNABO","PR","00968",(787) 792-7797
"TEATROCENTRO","MAYAGUEZ MALL 975 AVE HOSTOS, SUITE 295","MAYAGUEZ","PR","00680",(787) 832-7797
"TEATROCENTRO","975 AVE HOTOS STE 295","MAYAGUEZ PR","PR",00680,(787) 832-7797
"TEATROCENTRO ESTE","PLAZA CAROLINA, STORE #172 65 INFANTERIA & FRAGOSO","CAROLINA","PR","00983",(787) 768-5549
"TEATROCENTRO ESTE","PLAZA CAROLINA, STORE #172 65 INFANTERIA & FRAGOSO","CAROLINA","PR",00983,(787) 768-5549
"TEATROCENTRO SUR","VALLE REAL SHOPPING CENTER CARR. #2 Ponce by Pass Ave","PONCE","PR","00731",(787) 707-0826
"TEATROCENTRO SUR","VALLE REAL SHOPPING CENTER LOCAL #6 CARR.#2 PONCE BY PASS","PONCE PR","PR",00731,(787) 842-5616
"TEDDY'S SHOES","548 MASS AVE","CAMBRIDGE","MA",02139,(617) 547-0443
"TERRI'S STUFF","1509 SOUTH FT. HOOD STREET","KILLEEN","TX","76541",(254) 634-4404
"TESCHER'S SHOES","5013 16TH AVENUE","BROOKLYN","NY",11204,(718) 851-0908
"THAT'S DANCING","712 MOBJACK PLACE SUITE B","NEWPORT NEWS","VA",23606,(757) 873-0454
"THE BACK ROOM","2683 VIA DE LA VALLEY  STE K","DEL MAR","CA",92014,(858) 720-8449
"THE DANCER'S CLOSET","4558 WILLIAM PENN HWY","MURRYSVILLE","PA","15668",(724) 733-4615
"THE DANCER'S POINTE","665 MARKET ST","LEMOYNE","PA","17043",(717) 583-1820
"THE SHOWROOM","511 KINGS HIGHWAY","BROOKLYN","NY",11223,(718) 336-1199
"THEATRICAL SHOP, THE","145 FIFTH","West DES MOINES","IA",50265,(515) 274-3661
"THERAPY","316 E COLORADO BLVD","PASADENA","CA",91101,(626) 568-9905
"THERESA MISASI","303 WALL STREET","KINGSTON","NY",12401,(845) 339-4202
"THOMAS TUCKER INC","8010 OLD BRANCH AVE","CLINTON","MD",20735,(301) 856-2144
"THREADBARE DANCEWEAR","822 G STREET STE 7","ARCATA","CA",95521,"(707) 822-7894"
"THREE SISTERS","270 MARKET SQUARE","LAKE FOREST","IL",60045,(847) 604-8565
"THULE, LLC","25 WEST CEDAR STREET, STE 130","PENSACOLA","FL",32502,(850) 435-9600
"TIFFANY DESIGNS","5 SYCAMORE DRIVE","NEW MIDDLETOWN","OH",44442,(330) 542-2762
"TIGHE RETAIL LTD.","333 EAST SEVENTH AVE.","YORK","PA",17404,(717) 852-6979
"TIGHTS N THINGS","2676 SOUTH GLENSTONE","SPRINGFIELD","MO",65804,(417) 882-7205
"TIGHTSPOT DANCEWEAR CENTER","2524 BROWNSVILLE ROAD","PITTSBURGH","PA",15210,(412) 885-6440
"TINA DRAGONE","1687 POST ROAD E.","WESTPORT","CT",06880,(203) 259-1184
"TINY FEET","894 AUGUSTA DRIVE","ORINDA","CA",94556,(925) 317-3062
"TIP TOP SHOES","155 W 72ND STREET","NEW YORK","NY",10023,(212) 787-4960
"TIPPY TOES","20 NASSAU STREET","PRINCETON","NJ",08542,(609) 683-8637
"TIPTOES DANCE & SPORTWEAR BOUTIQUE INC","2945 E. GULF TO LAKE HWY","INVERNESS","FL",34453,(352) 341-0955
"TO THE POINTE","1115 COTTONWOOD AVENUE","HARTLAND","WI",53029,(262) 367-7177
"TOE THE LINE","4204-B N. ARLINGTON HEIGHTS RD","ARLINGTON HEIGHTS","IL",60004,(847) 818-9800
"TOE TO TOE DANCE SHOES","G-1159 WEST HILL ROAD SUITE C","FLINT","MI",48507,(810) 238-7400
"TOE,TAPS N'TIGHTS","5 KELLY ROAD","SALEM","NH",03079,(603) 894-4557
"TOOTIES WEST","175 EAST PROSPECT AVE #100","DANVILLE","CA",94526,(925) 552-6638
"TOOTSIE PONTE VERDA","240 A1A NORTH #3","PONTE VERDA","FL",32082,(904) 285-3366
"TOOTSIES","4517 FOREST DRIVE","COLUMBIA","SC",29206,(803) 738-1873
"TOOTSIES BOUTIQUE","5525 COLLEGE AVE","OAKLAND","CA",94618,(510) 595-7272
"TOOTSIE'S LAGUNA","1200 SOUTH COAST HWY","LAGUNA","CA",92652,(949) 715-5151
"TOOTSIES TOO","1025 A PROVIDENCE ROAD","CHARLOTTE","NC",28207,(704) 379-1992
"TOPTOE DANCEWEAR","4608 JONES CREEK ROAD #200","BATON ROUGE","LA",70817,(225) 755-0575
"TORLY KID","51 HUDSONS STREET","NEW YORK","NY",10013,(917) 282-4089
"TORRIBELL","1125-J MILITARY CUTOFF ROAD","WILMINGTON","NC",28405,(910) 679-4081
"TORY JANES","2 CHURCH STREET","MONTCLAIR","NJ",07042,(973) 744-6655
"TREP ART INC.","13865 WEST NORTH AVE","BROOKFIELD","WI",53005,(262) 786-8868
"TRES JOLIE","600 E. FRANKLIN STREET","MONTEREY","CA",93940,(831) 375-3000
"TREVOSE FAMILY SHOES INC.","1738 BROWNSVILLE RD.","TREVOSE","PA",19053,(215) 357-0209
"TRIANGLE ACADEMY OF DANCE","2918 KILDAIRE FARM ROAD","CARY","NC",27518,(919) 387-1298
"TRIMS & TOGS","5713 DIXIE HIGHWAY","WATERFORD","MI",48329,(248) 623-1191
"TRIO","73520 EL PASEO","PALM DESERT","CA",92260,(760) 837-9333
"TRIPLE LOOP SKATE & DANCE","4 RAILROAD AVE","ESSEX JUNCTION","VT",05452,(802) 878-2255
"TRIPPET'S","2635 S. HARVARD","TULSA","OK",74114,(918) 747-3451
"TROPICAL LOUNGE TANNING & DANCEWEAR","207 1/2 SOUTH MAIN STREET","DELPHOS","OH",45833,(419) 695-5320
"TU TU","2217 W. 27TH ST.","PINE BLUFF","AR",71603,(870) 534-1020
"TU TU CUTE DANCEWEAR","60 COMMERCIAL DRIVE","LONDON","KY",40741,(606) 864-3783
"TUGBOAT AND THE BIRD","318 N. PARK AVE","WINTER PARK","FL",32789,(407) 647-5437
"TULIPS","570 BUCHANAN AVENUE","NORMAN","OK",73069,(405) 217-9322
"TULIPS GROVE, THE","2078 ANTIOCH COURT","OAKLAND","CA",94611,(510) 339-2225
"TULLE","3962 NORTH LAKE BLVD.","PALM BEACH GARDENS","FL",33408,(561) 493-8144
"TURNING POINTE","5143 FOREST DR.","COLUMBIA","SC",29206,(803) 782-8188
"TURNING POINTE","1650 SAM RITTENBERG BLVD UNIT #3","CHARLESTON","SC","29407",(843) 571-3999
"TURNING POINTE, THE","747 N. SALINA ST.","SYRACUSE","NY",13208,(315) 471-8440
"TUTTI BAMBINI","290 WHEATLEY PLAZA","GREENVALE","NY",11548,(212) 472-4238
"TUTU CUTE","4010 COLLEEN DRIVE","CHAMPAIGN","IL","61822",(217) 840-9047
"TUTU CUTE BOUTIQUE","4005 TALLGRASS DRIVE","CHAMPAIGN","IL",61822,(217) 840-9047
"TUTU MUCH DANCEWEAR & COSTUMES","200 NORTH MAIN","FALLBROOK","CA",92028,(760) 731-2278
"TUTU STOP, THE","504 N MAIN UNIT 1","SYCAMORE","IL",60178,(815) 761-9614
"TUTUS AND TWIRLS","1118 MAIN STREET","GARDENDALE","AL","35071",(205) 285-5380
"TUTUS AND TWIRLS","4301 FOXGLOVE TRAIL","GARDENDALE","AL",35071,(205) 365-0408
"TUTU'S DANCE WEAR","944 SUTTON BRIDGE ROAD","RAINBOW CITY","AL",35906,(256) 442-3196
"TUTUS TOO DANCE BOUTIQUE","2726 6TH AVENUE W.","BRADENTON","FL",34205,(941) 807-3650
"TUTUS, TAPS & ALL THAT JAZZ","216 HEADTOWN ROAD","JONESBOROUGH","TN",37659,(423) 753-2241
"TUTUTOES & COMPANY","20006 SHERIDAN AVENUE","HAGERSTOWN","MD",21742,(301) 665-9302
"TUTUTOES & COMPANY","107 NORTH POTOMAC STREET","HAGERSTOWN","MD","21740",(301) 665-9302
"TWEED BABY OUTFITTERS","1200 VILLA PLACE STE 110","NASHVILLE","TN",37212,(615) 627-8290
"TWINKLE TOES","13 HIGH STREET","HAMPTON","NH",03842,(603) 929-8637
"TWIRL KIDS","3121 OCEAN DRIVE","VERO BEACH","FL",32963,(772) 492-1091
"TWO OLD HIPPIES","401 12TH AVENUE SOUTH","NASHVILLE","TN",37203,(615) 254-7999
"TWO SKIRTS","2124 CHESTNUT STREET","SAN FRANCISCO,","CA",94123,(415) 441-6727
"TWO SOLE SISTERS","1703 PEARL STREET","BOULDER","CO",80302,(303) 442-0404
"TWO WORLDS DANCE & FITNESS","340 WHEATLEY PLAZA","GREENVALE","NY",11548,(516) 484-6604
"ULTIMATE DANCE ZONE, THE","25-11 GIBBS ROAD","CORAM","NY",11727,(631) 732-5202
"ULTIMATE DANCEWEAR & ACCESSORIES","1403-2 DUNN AVE","JACKSONVILLE","FL",32218,(904) 766-0009
"UNFORGETTABLE BODYWEAR","3708 ROUTE 9 SOUTH","HOWELL","NJ",07731,(732) 364-6106
"UNIVERSITY PERFORMING ARTS CTR","160 ALEXANDRIA BLVD.","OVIEDO","FL",32765,(407) 366-5779
"UPSTAGE DANCEWEAR","114 W. VIRGINIA ST.","MC KINNEY","TX",75069,(972) 547-4444
"UPSTAIRS DANCEWEAR","120 1/2 E BROADWAY STREET","COUNCIL BLUFFS","IA",51503,(712) 328-0499
"UPTOWN COSTUME","4326 MAGAZINE ST.","NEW ORLEANS","LA",70115,(504) 895-7969
"UPTOWN KIDS","5840 NORTH CLASSON BLVD, STE 3","OKLAHOMA CITY","OK",73118,(405) 418-8881
"UTAH DANCE","9150 S. 1300 E.","SANDY","UT",84094,(801) 565-1133
"VARSITY SPIRIT FASHION","3131 APPLING ROAD","BARTLETT","TN","38133",(901) 387-4300
"VARSITY SPORTS &DANCE SUPPLIES","1550 WEST 84TH STREET","HIALEAH","FL",33014,(305) 698-8567
"VASARI","410 S. RAMPART BLVD #150","LAS VEGAS","NV",89145,(702) 597-9500
"VELVET SLIPPER, THE","10 A SOUTH STATE STREET","NEWTOWN","PA",18940,(215) 968-1059
"VICTORIA'S DANCE - THEATRICAL SUPPLY","1921 W SAN CARLOS","SAN JOSE","CA",95128,(408) 295-9316
"VILLAGE DANCE SHOP","317 WESTTOWN ROAD - SUITE 5","WEST CHESTER","PA",19382,(610) 918-9518
"VINTAGE TEE","123 EAST WALL STREET","SHERMAN","TX",75090,(903) 328-6598
"VIVA DANCE COMPANY, LLC","15476 CHARLES STREET","MONROE","MI",48161,(734) 384-8482
"W CONCEPT","100 W FOREST AVE UNIT 4","ENGLEWOOD","NJ",07631,(201) 227-8060
"WALTZING MATILDA","100 S. FINDLEY","PUNXSUTAWNEY","PA",15767,(814) 938-8434
"WEE SOLES","3827 SUNSET BLVD","LOS ANGELES","CA",90026,(323) 667-0774
"WEINGARTEN QUALITY SHOES","27 ORCHARD STREET","MONSEY","NY",10952,(845) 425-0899
"WELLNESS BABY","2722 ROUTH STREET","DALLAS","TX",75201,(214) 909-9995
"WHIDBEY FOOTWEAR","1804 SCOT ROAD #103","FREELAND","WA",98249,(206) 399-8461
"WHIMSIES","2142 BARRACKS ROAD","CHARLOTTESVILLE","VA",22903,(434) 977-8767
"WILLIE'S/AVONDALE CHILDREN'S","3567 ST. JOHNS AVENUE","JACKSONVILLE","FL",32205,(904) 384-3664
"WINNERS ALL","6323 CAMP BOWIE BLVD. #167","FORT WORTH","TX",76116,(817) 738-9255
"WISH","9765 CLAYTON ROAD","ST. LOUIS","MO",63124,(314) 432-0800
"WISHES","240 CHAPEL PLACE","AVON","CO",81620,(970) 845-0456
"WISHING WELL","6723 GREENLEAF AVENUE","WHITTIER","CA",90601,(562) 464-9474
"WORLDTONE","2138 WESTWOOD BLVD","LOS ANGELES","CA","90025",(310) 234-9100
"WORLDTONE DANCE","230 7TH AVENUE 2ND FLOOR","NEW YORK","NY",10011,(212) 691-1934
"WOW DANCEWEAR","771 SOUTHBRIDGE ST.","AUBURN","MA",01501,(508) 832-7600
"WSPA INC.","549 ZOR SHRINE PLACE","MADISON","WI",53719,(608) 833-9772
"XLR8","1002 N WATER SUITE 2","BURNET","TX",78611,(512) 756-0930
"YAVAL INC","250 SOUND BEACH AVENUE","OLD GREENWICH","CT",06870,(203) 637-4444
"YOUNGSTOWN DANCE SUPPLY","5232 MARKET ST.","YOUNGSTOWN","OH",44512,(330) 782-4891
"YOUR SHOO","5001 18TH AVE","BROOKLYN","NY",11204,(718) 633-3278
"YOYA","636 HUDSON STREET","NEW YORK","NY",10014,(646) 336-6844
"YOYAMART","15 GANSEVOORT STREET","NEW YORK","NY",10014,(212) 242-5512
"ZENA'S SHOES INC","6713 18TH AVE","BROOKLYN","NY",11204,(718) 645-4600
"ZOE","11 HULFISH STREET","PRINCETON","NJ",08542,(609) 497-0704
